"","NAME","PERMIT_NO","ADDRESS","CITY","ZIP_CODE","PHONE","CONTACT","PUMPS","CNG_DEV","CPCODE","CPNAME","ACREAGE","SHAPE_AREA","SHAPE_LEN","latitude","longitude"
"1","CHULA VISTA ELEM.SCHL/ATN: BARRY",10231,"84 E ""J"" STREET","CHULA VISTA",91910,"619 425-9600",NA,0,2,NA,NA,NA,NA,NA,-117.290396838326,33.0384657531839
"2","COSD AWM STANDARDS ENFORCEMENT",17000,"5555 OVERLAND AVE","SAN DIEGO",0,"858-614-2778",NA,0,1,50,"KEARNY MESA",4422.62522793,192654079.159,85207.8673967,-117.130759491254,32.8335436797069
"3","EXPRESS FINANCIAL SERVICE",0,"390 E SAN YSIDRO BLVD","SAN YSIDRO",92173,"619-428-1800",NA,0,1,33,"SAN YSIDRO",1862.29010478,81121357.007,44119.18566,-117.037811072078,32.5505143825034
"4","FERRELL GAS/EMERALD OIL",0,"5600 BALTIMORE DR","LA MESA",91942,"858 271-4400","FERRELLGAS",0,1,NA,NA,NA,NA,NA,-117.033214510495,32.7810568082448
"5","PEARSON FORD FUELS",13880,"4067 EL CAJON BLVD","SAN DIEGO",92105,NA,"LISA PIETILA/BUSINESS MGR",0,2,56,"MID-CITY:CITY HEIGHTS",2935.50927873,127870892.422,53479.7643387,-117.10784537444,32.7550286325837
"6","POWAY SCHOOL DIST",10227,"13626 TWIN PEAKS RD","POWAY",92064,"654-1105",NA,0,2,NA,NA,NA,NA,NA,-117.035692793781,32.9784905966338
"7","PREMIER FOOD SERV MGT GROUP",15843,"4200 RUFFIN ROAD","SAN DIEGO",92123,NA,NA,0,1,50,"KEARNY MESA",4422.62522793,192654079.159,85207.8673967,-117.125093484543,32.8177535471318
"8","SDG&E/GAS OPS/C. CRISS",10228,"5488 OVERLAND AVE","SAN DIEGO",92123,"654-1105",NA,0,2,50,"KEARNY MESA",4422.62522793,192654079.159,85207.8673967,-117.131170427199,32.8333691498087
"9","SDG&E/GAS OPS/C. CRISS",10225,"6875 CONSOLIDATED WAY","SAN DIEGO",92121,"654-1105",NA,0,2,15,"MIRA MESA",10729.0159538,467349981.008,107975.395374,-117.16708697391,32.8776939285241
"10","SDG&E/GAS OPS/C. CRISS",13788,"5016 CARLSBAD AVENUE","CARLSBAD",92008,"562-806-5909","MALLINA OR RON LEDBETTER",0,2,NA,NA,NA,NA,NA,-117.335254410104,33.1324682558503
"11","76 CONOCOPHILLIPS #252196",3599,"3795 6TH AV","SAN DIEGO",92103,"619-296-2157",NA,32,0,42,"UPTOWN",2646.93163314,115753599.083,61250.8361473,-117.159361300599,32.7468177342523
"12","7-ELEVEN #13627 /7-ELEVEN, INC",2434,"102 LEUCADIA BLVD","ENCINITAS",92024,"744-3604",NA,12,0,NA,NA,NA,NA,NA,-117.301586162051,33.0645928450512
"13","ALLEN GAS TRUCK STOP",11836,"3205 MAIN ST","CHULA VISTA",91911,"619-585-3058",NA,18,0,NA,NA,NA,NA,NA,-117.064237263411,32.5946442609875
"14","APRO-LLC #27",14780,"976 ESCONDIDO AV","VISTA",92083,"323-893-2411",NA,44,0,NA,NA,NA,NA,NA,-117.234787776255,33.1929068484527
"15","ARCO AMPM #607",2903,"3190 MAIN ST","CHULA VISTA",91911,NA,NA,24,0,NA,NA,NA,NA,NA,-117.064876294755,32.5949204882142
"16","ARCO AMPM #6523",12668,"133 8TH ST","NATIONAL CITY",91950,"714 670-5179",NA,56,0,NA,NA,NA,NA,NA,-117.108337831422,32.6755719622821
"17","ARCO-MELROSE ARCO",14118,"1590 S MELROSE DR","VISTA",92081,"760-599-7059",NA,36,0,NA,NA,NA,NA,NA,-117.247561102186,33.1676781233354
"18","BJ'S RENTALS",15310,"2665 MAIN ST","CHULA VISTA",91911,"619 423-7000",NA,2,0,NA,NA,NA,NA,NA,-117.075929947451,32.5946372853238
"19","CARMEL MTN RANCH CAR WASH, INC",12396,"11030 RANCHO CARMEL DR","SAN DIEGO",92128,"858-451-1212",NA,48,0,3,"CARMEL MOUNTAIN RANCH",1522.7694068,66331835.3361,36137.232132,-117.082652116733,32.9772611867102
"20","CIRCLE K - #2964",2440,"60 BROADWAY","CHULA VISTA",91910,"602-437-7576",NA,12,0,NA,NA,NA,NA,NA,-117.095487239846,32.6460123919436
"21","COSTCO WHOLESALE #781",10617,"1130 BROADWAY","CHULA VISTA",91911,NA,NA,24,0,NA,NA,NA,NA,NA,-117.081057462464,32.6090253622213
"22","FILLCO, AMMEX OIL, INC.",15055,"1244 N SANTA FE AV","VISTA",92083,"760 806-5360",NA,28,0,NA,NA,NA,NA,NA,-117.245025746161,33.2162555681629
"23","GOLDEN STATE GASOLINE, INC.",2697,"7081 BROADWAY","LEMON GROVE",91945,"619-593-6652",NA,28,0,NA,NA,NA,NA,NA,-117.044583080787,32.7423855231794
"24","OPTIMA CAR WASH",11062,"498 BROADWAY","CHULA VISTA",91910,"619-691-0942",NA,24,0,NA,NA,NA,NA,NA,-117.089627859921,32.6309544546344
"25","PETROL MINI MART",7303,"4430 MAIN ST","CHULA VISTA",91911,"619-498-0218","YOGESH PATEL",26,0,NA,NA,NA,NA,NA,-117.038019124348,32.5947113744485
"26","REFLECTSHINE AUTO WASH",7199,"3528 COLLEGE BLVD","OCEANSIDE",92056,"760-945-9111",NA,24,0,NA,NA,NA,NA,NA,-117.295384221508,33.1802245925883
"27","SHELL - OTAY VALLEY SHELL",14503,"4555 MAIN ST","CHULA VISTA",91911,"619-482-1896",NA,28,0,NA,NA,NA,NA,NA,-117.034587531886,32.5947445511365
"28","SHELL OIL PRODUCTS US #128022",10869,"400 SYCAMORE AV","VISTA",92083,"602-468-6944",NA,40,0,NA,NA,NA,NA,NA,-117.213256427941,33.1687715742799
"29","SHELL OIL PRODUCTS US #135270",5845,"160 ENCINITAS BLVD","ENCINITAS",92024,"602-468-6944",NA,30,0,NA,NA,NA,NA,NA,-117.289916395891,33.0487972520136
"30","SKS INC.",2706,"1726 MISSION","ESCONDIDO",92029,"858-530-1193",NA,24,0,NA,NA,NA,NA,NA,-117.117920271312,33.1284274322286
"31","THRIFTY #9758",2703,"398 EL CAJON BLVD","EL CAJON",92020,NA,NA,24,0,NA,NA,NA,NA,NA,-116.971407631674,32.7914624930569
"32","VALERO-HIGHLAND VALERO",13942,"804 8TH ST","NATIONAL CITY",91950,"619-477-5544",NA,28,0,NA,NA,NA,NA,NA,-117.098536933583,32.6780342040239
"33","7-ELEVEN #25302 /7-ELEVEN, INC",3512,"711 JAMACHA RD","EL CAJON",92019,"579-8711",NA,12,0,NA,NA,NA,NA,NA,-116.92764125901,32.787353819524
"34","CHEVRON #45/G&M OIL CO., #45",1757,"3774 MAIN ST","SAN DIEGO",92113,"714-375-4700",NA,28,0,2,"BARRIO LOGAN",551.69622779,24031887.8004,41958.6535406,-117.112577997834,32.6840171402472
"35","CHEVRON CAR WASH / 4S RANCH-OWNER",14414,"16629 DOVE CANYON RD","SAN DIEGO",92127,"858 613-1315",NA,36,0,NA,NA,NA,NA,NA,-117.111437989382,33.0149271865898
"36","CIRCLE K/76 #2702971",13835,"14147 TWIN PEAKS RD","POWY",92064,"281-293-1000",NA,12,0,NA,NA,NA,NA,NA,-117.023733175791,32.9777020505335
"37","COSBY OIL CO., INC.",4843,"6225 FAIRMOUNT AVE","SAN DIEGO",92120,"619-280-6885",NA,27,0,20,"NAVAJO",9087.30876031,395843630.815,113466.64168,-117.100981556668,32.7890550956684
"38","EL CAPITAN OIL COMPANY",13037,"12210 INDUSTRY RD","LAKESIDE",92040,"619-448-5891",NA,16,0,NA,NA,NA,NA,NA,-116.927960582417,32.8607485949542
"39","EXXONMOBIL OIL CORP. #10826",2349,"899 PALOMAR AIRPORT RD","CARLSBAD",92009,"760-438-2141",NA,48,0,NA,NA,NA,NA,NA,-117.319575845076,33.1217090466362
"40","HARRISON TRUCKING, INC.",1728,"8801 OLIVE LN","SANTEE",92071,"619-449-0840",NA,2,0,NA,NA,NA,NA,NA,-116.987204241561,32.8357581418946
"41","HAWTHORNE MACHINERY COMPANY",0,"16945 CAM SAN BERNARDO","SAN DIEGO",92127,"674-7127",NA,2,0,NA,NA,NA,NA,NA,-117.101971938097,33.0138648201967
"42","MOBIL-RANCHO SANTA FE",2534,"6089 LA FLECHA","RANCHO SANTA",92067,"619-756-2929",NA,12,0,NA,NA,NA,NA,NA,-117.202291078524,33.0192499588126
"43","MOHSEN OIL",2264,"3213 MISSION AVE","OCEANSIDE",92054,"760-945-7222",NA,44,0,NA,NA,NA,NA,NA,-117.347599376493,33.2134857760587
"44","O'SIDE GAS",16070,"656 BENET RD, STE A","OCEANSIDE",92054,"760-967-1512",NA,44,0,NA,NA,NA,NA,NA,-117.356992869759,33.2140928554457
"45","PACIFIC PRIDE - VALLEY CENTER OIL CORP",7125,"28010 VALLEY CENTER RD","VALLEY CENTER",92082,"760-749-1281",NA,24,0,NA,NA,NA,NA,NA,-117.033884753908,33.2188426651243
"46","PLAVAN PETROLEUM, INC.",7230,"575 AIRPORT RD","OCEANSIDE",92054,"800-499-4645",NA,12,0,NA,NA,NA,NA,NA,-117.354048464904,33.2160416732912
"47","RAMONA OIL CO, INC",1709,"1000 OLIVE ST","RAMONA",92065,"760-789-0410",NA,8,0,NA,NA,NA,NA,NA,-116.873483828478,33.0471355953923
"48","SHELL",15807,"5261 BALTIMORE DR","LA MESA",91942,"310 467-4600",NA,28,0,NA,NA,NA,NA,NA,-117.026957975425,32.775004075355
"49","SHELL OIL PRODUCTS US #120655",10506,"9205 TWIN TRAILS DR","SAN DIEGO",92129,"602-468-6944",NA,34,0,29,"RANCHO PENASQUITOS",6456.34490358,281238503.825,93268.9199605,-117.128500964371,32.9564920586671
"50","SHELL OIL PRODUCTS US #135924",3965,"1011 A ST","SAN DIEGO",92101,"602-468-6944",NA,36,0,4,"DOWNTOWN",1516.21502084,66053186.5307,55781.5643997,-117.15533893562,32.7186743679115
"51","SHELL-VINTNERS DISTRS., INC",10045,"13538 CAM CANADA","EL CAJON",92021,"510-293-9150",NA,40,0,NA,NA,NA,NA,NA,-116.901881433577,32.8261253503702
"52","STAGE STOP LIQUOR",3522,"578 MAIN ST","RAMONA",92065,"760-789-0993",NA,14,0,NA,NA,NA,NA,NA,-116.861900839488,33.0453440182884
"53","TAVERN RD VALERO",16377,"1140 TAVERN RD","ALPINE",91901,NA,NA,31,0,NA,NA,NA,NA,NA,-116.780757208307,32.8412219564125
"54","TERRY'S HAY & GRAIN",4756,"27350 VALLEY CENTER RD","VALLEY CENTER",92082,"760-749-9328",NA,1,0,NA,NA,NA,NA,NA,-117.034085633734,33.2067579640096
"55","COUNTY OF SAN DIEGO/EAST MESA DETENTION",10359,"446 ALTA RD","SAN DIEGO",92173,NA,NA,2,0,NA,NA,NA,NA,NA,-116.923493277669,32.5910723615029
"56","COUNTY OF SAN DIEGO/SO.BAY REGIONAL CEN",10364,"500 3RD AVE","CHULA VISTA",91910,NA,NA,2,0,NA,NA,NA,NA,NA,-117.077746126274,32.6326574653184
"57","RAINBOW OAKS INC.",14619,"4811 5TH ST","RAINBOW",92028,"760 728-1822",NA,4,0,NA,NA,NA,NA,NA,-117.158535386353,33.4136172663334
"58","4S GASOLINE DEPOT.",15513,"6795 MIRA MESA BLVD","SAN DIEGO",92121,"858-554-0460",NA,36,0,15,"MIRA MESA",10729.0159538,467349981.008,107975.395374,-117.171672363832,32.9071237658552
"59","7 ELEVEN #32825",12515,"5188 BONITA RD","BONITA",91902,NA,NA,24,0,NA,NA,NA,NA,NA,-117.019945223843,32.6718974059662
"60","76  @ SHAWDOW RIDGE",14797,"636 SYCAMORE AVE","VISTA",92081,"760-598-0076",NA,26,0,NA,NA,NA,NA,NA,-117.215946166617,33.1663958049536
"61","76 - APC OIL INC.",15126,"13012 POMERADO RD","POWY",92064,"858-748-7603","TONY THOMAS",24,0,NA,NA,NA,NA,NA,-117.062837816224,32.952143582165
"62","76 # NORTH PARK",15016,"3154 EL CAJON BLVD","SAN DIEGO",92104,"619 283-6251",NA,24,0,28,"GREATER NORTH PARK",2253.69411336,98171624.1502,50884.2009183,-117.126099178506,32.7557485187122
"63","76 #2705723",5271,"880 CARLSBAD VILLAGE DR","CARLSBAD",92008,NA,NA,24,0,NA,NA,NA,NA,NA,-117.345606419449,33.1616941152026
"64","76 @ MAIN ST.",1945,"1090 W MAIN ST","EL CAJON",92020,"619-227-2933",NA,24,1,NA,NA,NA,NA,NA,-116.975129164971,32.7952531483403
"65","76 CONOCO PHILLIPS #256409",13368,"3995 BONITA RD","BONITA",91902,NA,NA,32,0,NA,NA,NA,NA,NA,-117.04150754606,32.6581080823032
"66","76 CONOCOPHILLIPS #255221",15905,"898 BRDWY","CHULA VISTA",91911,NA,NA,40,0,NA,NA,NA,NA,NA,-117.084593269679,32.6173829540619
"67","76 CONOCOPHILLIPS #257131",4891,"11906 CAMPO RD","SPRING VALLEY",91978,"670-7601",NA,34,0,NA,NA,NA,NA,NA,-116.943293969731,32.7402587541689
"68","76 CONOCOPHILLIPS#250834",3361,"2804 GARNET AVE","SAN DIEGO",92109,"274-7600",NA,36,0,27,"PACIFIC BEACH",2609.08329077,113649440.618,60036.3387182,-117.218666021528,32.8064451336487
"69","76 CONOCOPHILLIPS#251927",53,"1076 ROSECRANS ST","SAN DIEGO",92106,"619-224-2578",NA,18,0,30,"PENINSULA",5282.33053107,230118805.311,128220.9802,-117.232187749841,32.721439865964
"70","76 CONOCOPHILLIPS#254247 c/o KAYO OIL C",13372,"2410 FLETCHER PKWY","EL CAJON",92020,"619-460-0076",NA,24,0,NA,NA,NA,NA,NA,-116.997901946929,32.8027742232878
"71","76 CONOCOPHILLIPS#254875",2269,"2003 MISSION AVE","OCEANSIDE",92054,"721-3797","DENNIS 760-471-0150",24,0,NA,NA,NA,NA,NA,-117.361541569292,33.1995610601634
"72","76 CONOCOPHILLIPS#255237 c/o KAYO OIL C",2011,"7807 BALBOA AVE","SAN DIEGO",92111,"858-279-8002",NA,24,0,50,"KEARNY MESA",4422.62522793,192654079.159,85207.8673967,-117.154661966105,32.8213985511953
"73","76 CONOCOPHILLIPS#255295",2415,"5790 BALBOA AVE","SAN DIEGO",92111,"492-9039",NA,42,0,6,"CLAIREMONT MESA",8539.17388935,371970138.828,91823.2606488,-117.178565445357,32.8205693819218
"74","76 CONOCOPHILLIPS#255927",4427,"895 TAMARACK","CARLSBAD",92008,"729-9251",NA,24,0,NA,NA,NA,NA,NA,-117.337143450271,33.1514689397202
"75","76 CONOCOPHILLIPS#256251",2340,"3805 INGRAHAM ST","SAN DIEGO",92109,"858-272-6171",NA,24,0,27,"PACIFIC BEACH",2609.08329077,113649440.618,60036.3387182,-117.237222182474,32.7891788934839
"76","76 CONOCOPHILLIPS#256894",13370,"1495 E H ST","CHULA VISTA",91910,NA,NA,30,0,NA,NA,NA,NA,NA,-117.001316794265,32.644408728597
"77","76 CONOCOPHILLIPS#257033",4060,"3361 MISSION AVE","OCEANSIDE",92054,"433-4647",NA,44,0,NA,NA,NA,NA,NA,-117.341094044873,33.2179376806895
"78","76 CONOCOPHILLIPS#257288",13371,"4181 OCEANSIDE BLVD","OCEANSIDE",92056,NA,NA,36,0,NA,NA,NA,NA,NA,-117.285586058416,33.2066194376195
"79","76 CORONADO",15709,"900 ORANGE AVE","CORONADO",92118,"619-435-0076",NA,24,0,NA,NA,NA,NA,NA,-117.179558616944,32.687271050303
"80","76 INC",16376,"500 N 2ND ST","EL CAJON",92021,NA,NA,24,0,NA,NA,NA,NA,NA,-116.936099199173,32.8004633465709
"81","76 MELROSE ORANGE UNOCAL 76",16072,"1126 13TH ST","IMPERIAL BEAC",91932,"619-424-8255",NA,24,0,NA,NA,NA,NA,NA,-117.106024343091,32.5758952234066
"82","76 PRODUCTS",15557,"3766 CLAIREMONT MESA BLVD","SAN DIEGO",92117,"B 619 518-75",NA,32,0,6,"CLAIREMONT MESA",8539.17388935,371970138.828,91823.2606488,-117.206503921505,32.8280461485486
"83","76 PRODUCTS - LA CIMA OIL CO, INC.",13903,"8289 OTAY MESA RD","SAN DIEGO",92154,"760 798-1102",NA,44,0,26,"OTAY MESA",9316.12916262,405811314.107,105906.774574,-116.964258226259,32.5664965446779
"84","76 PRODUCTS-OCEANSIDE BLVD UNION 76",13722,"1660 OCEANSIDE BLVD","OCEANSIDE",92054,"760-722-1304",NA,28,0,NA,NA,NA,NA,NA,-117.364261889283,33.189298793283
"85","76 UNOCAL CONOCOPHILLIPS#256834",3567,"12860 RANCHO PENASQUITOS BLVD","SAN DIEGO",92129,"566-5980",NA,32,0,29,"RANCHO PENASQUITOS",6456.34490358,281238503.825,93268.9199605,-117.107906223112,32.9507589815697
"86","76, OCEANA #255940",15676,"502 S EL CAM REAL","OCEANSIDE",92056,"B 760 757-74",NA,24,0,NA,NA,NA,NA,NA,-117.331608143378,33.2180798500025
"87","76-ATTISHA OIL",13601,"5194 WARING RD","SAN DIEGO",92120,NA,NA,24,0,20,"NAVAJO",9087.30876031,395843630.815,113466.64168,-117.081438698075,32.79252119248
"88","76-POINT LOMA 76",12910,"1704 ROSECRANS ST","SAN DIEGO",92106,"858 538-9085",NA,32,0,30,"PENINSULA",5282.33053107,230118805.311,128220.9802,-117.225923625525,32.7289109767213
"89","7-ELEVEN #13575/7-ELEVEN, INC",2086,"10049 CAMPO RD","SPRING VALLEY",91977,"579-8711",NA,12,0,NA,NA,NA,NA,NA,-116.978545561065,32.7472129786177
"90","7-ELEVEN #13588 /7-ELEVEN, INC",4474,"1285 PICADOR BLVD","SAN DIEGO",92154,"474-7021",NA,12,0,25,"OTAY MESA-NESTOR",5367.82083453,233822275.552,95210.7085828,-117.053805585547,32.5741803077271
"91","7-ELEVEN #13619/7-ELEVEN, INC",11197,"1702 ESCONDIDO BLVD","ESCONDIDO",92025,NA,NA,36,0,NA,NA,NA,NA,NA,-117.072641182286,33.1046198853039
"92","7-ELEVEN #13624 /7-ELEVEN, INC",2504,"13626 POMERADO RD","POWY",92064,"503-977-7713",NA,12,0,NA,NA,NA,NA,NA,-117.062908421807,32.9617174693562
"93","7-ELEVEN #13625 /7-ELEVEN, INC",2433,"470 N MELROSE","VISTA",92083,"438-8444",NA,12,0,NA,NA,NA,NA,NA,-117.254777764148,33.2044744798159
"94","7-ELEVEN #13643 /7-ELEVEN, INC",5283,"6615 LINDA VISTA RD","SAN DIEGO",92111,"279-0994",NA,12,0,12,"LINDA VISTA",2732.27635866,119018237.81,61745.5248429,-117.174970661324,32.7736787568734
"95","7-ELEVEN #13661 /7-ELEVEN, INC",2087,"9251 CARLTON HILLS BLVD","SANTEE",92071,"579-8711",NA,12,0,NA,NA,NA,NA,NA,-116.997898796298,32.8455090316681
"96","7-ELEVEN #13662 /7-ELEVEN, INC",2088,"8625 LOS COCHES RD","LAKESIDE",92040,"579-8711",NA,12,0,NA,NA,NA,NA,NA,-116.905717485005,32.833301901142
"97","7-ELEVEN #13664 /7-ELEVEN, INC",2090,"4610 AVOCADO BLVD","LA MESA",91941,"579-8711",NA,12,0,NA,NA,NA,NA,NA,-116.961534179012,32.7631235505847
"98","7-ELEVEN #13666 /7-ELEVEN, INC",2089,"11610 RIVERSIDE DR","LAKESIDE",92040,"579-8711",NA,8,0,NA,NA,NA,NA,NA,-116.942608894965,32.8626637719076
"99","7-ELEVEN #15070 /7-ELEVEN, INC",2144,"10777 JAMACHA BLVD","SPRING VALLEY",91978,"464-2711",NA,12,0,NA,NA,NA,NA,NA,-116.961412895045,32.7295753462248
"100","7-ELEVEN #15923 /7-ELEVEN, INC",2435,"1501 N SANTA FE AVE","VISTA",92084,"438-8444",NA,12,0,NA,NA,NA,NA,NA,-117.244769140295,33.2215231587603
"101","7-ELEVEN #16498 /7-ELEVEN, INC",2146,"103 WORTHINGTON ST","SPRING VALLEY",91977,"464-2711",NA,12,0,NA,NA,NA,NA,NA,-117.01834647953,32.6978241843626
"102","7-ELEVEN #19006 /7-ELEVEN, INC",2094,"9111 MISSION GORGE RD","SANTEE",92071,"579-8711",NA,12,0,NA,NA,NA,NA,NA,-117.000364161004,32.8383215542869
"103","7-ELEVEN #19628 /7-ELEVEN, INC",2149,"2101 FERN ST","SAN DIEGO",92104,"464-2711",NA,12,0,8,"GREATER GOLDEN HILL",745.51826715,32475130.7948,29195.1594048,-117.129391638405,32.7277968127661
"104","7-ELEVEN #20174 /7-ELEVEN, INC",2151,"6571 EL CAJON BLVD","SAN DIEGO",92115,"464-2711",NA,12,0,57,"MID-CITY:EASTERN AREA",3115.1057929,135693919.385,61687.0047213,-117.056863601397,32.7668872323724
"105","7-ELEVEN #20211 /7-ELEVEN, INC",2509,"1076 MAIN ST","RAMONA",92065,"268-1070",NA,12,0,NA,NA,NA,NA,NA,-116.869792023206,33.0410031300083
"106","7-ELEVEN #20337 /7-ELEVEN, INC",2158,"2803 GARNET AVE","SAN DIEGO",92109,"273-9857",NA,20,0,27,"PACIFIC BEACH",2609.08329077,113649440.618,60036.3387182,-117.218385117189,32.8059096447537
"107","7-ELEVEN #20508 /7-ELEVEN, INC",2153,"948 GRAND AVE","SPRING VALLEY",91977,"464-2711",NA,12,0,NA,NA,NA,NA,NA,-116.997733088913,32.7146709205564
"108","7-ELEVEN #20551 /7-ELEVEN, INC",2347,"1602 UNIVERSITY AVE","SAN DIEGO",92103,"278-7861",NA,12,0,42,"UPTOWN",2646.93163314,115753599.083,61250.8361473,-117.149249015029,32.7486134499024
"109","7-ELEVEN #21604 /7-ELEVEN, INC",3801,"899 BRDWY","CHULA VISTA",91911,"474-7021",NA,12,0,NA,NA,NA,NA,NA,-117.083819481295,32.6176352009897
"110","7-ELEVEN #21798",12517,"1498 JAMACHA RD","EL CAJON",92020,NA,NA,24,0,NA,NA,NA,NA,NA,-116.9283291632,32.7693630343537
"111","7-ELEVEN #21800 /7-ELEVEN, INC",2439,"631 S MAIN AVE","FALLBROOK",92028,"438-8444",NA,6,0,NA,NA,NA,NA,NA,-117.251755637416,33.3768604498636
"112","7-ELEVEN #22481 /7-ELEVEN, INC",2098,"10205 LAKE JENNINGS PARK RD","LAKESIDE",92040,"579-8711",NA,12,0,NA,NA,NA,NA,NA,-116.900742022596,32.8611248200692
"113","7-ELEVEN #22872 /7-ELEVEN, INC",2348,"1826 ROSECRANS ST","SAN DIEGO",92106,"278-7861",NA,6,0,30,"PENINSULA",5282.33053107,230118805.311,128220.9802,-117.224681403401,32.7303757884345
"114","7-ELEVEN #22894 /7-ELEVEN, INC",2511,"1030 N BRDWY","ESCONDIDO",92026,"268-1070",NA,12,0,NA,NA,NA,NA,NA,-117.086657059914,33.1342310157944
"115","7-ELEVEN #24070 /7-ELEVEN, INC",2518,"1482 HILLTOP DR","CHULA VISTA",91911,"474-7021",NA,8,0,NA,NA,NA,NA,NA,-117.051871257071,32.6004782823911
"116","7-ELEVEN #24085 /7-ELEVEN, INC",2431,"900 N SANTA FE","VISTA",92083,"438-8444",NA,12,0,NA,NA,NA,NA,NA,-117.245380419212,33.2120037507128
"117","7-ELEVEN #24155 /7-ELEVEN, INC",2156,"1702 GATEWY DR","SAN DIEGO",92105,"464-2711",NA,6,0,56,"MID-CITY:CITY HEIGHTS",2935.50927873,127870892.422,53479.7643387,-117.108049636014,32.7233189690716
"118","7-ELEVEN #25165 /7-ELEVEN, INC",3423,"3385 SANDROCK RD","SAN DIEGO",92123,"278-7861",NA,12,0,35,"SERRA MESA",2210.57457253,96335366.3695,57827.3555222,-117.139743015462,32.8047430846378
"119","7-ELEVEN #25629 /7-ELEVEN",3735,"11205 CAM RUIZ","SAN DIEGO",92126,"465-2101",NA,24,0,15,"MIRA MESA",10729.0159538,467349981.008,107975.395374,-117.143558010415,32.9253975318822
"120","7-ELEVEN #25766 /7-ELEVEN, INC",4367,"2211 SAN ELIJO AVE","CARDIFF",92007,"760-436-0895",NA,12,0,NA,NA,NA,NA,NA,-117.281211495869,33.0193197742666
"121","7-ELEVEN #25807 /7-ELEVEN, INC",4472,"1075 ELKELTON","SPRING VALLEY",91977,"464-2711",NA,12,0,NA,NA,NA,NA,NA,-117.017172601954,32.7143965993554
"122","7-ELEVEN #25818 /7-ELEVEN, INC.",1226,"2255 MISSION AVE","OCEANSIDE",92054,"760-721-2054",NA,12,0,NA,NA,NA,NA,NA,-117.359252913339,33.2082004955379
"123","7-ELEVEN #26182 /7-ELEVEN, INC",5101,"14225 POWY RD","SAN DIEGO",92064,"278-7861",NA,12,0,NA,NA,NA,NA,NA,-117.023408993789,32.956613639052
"124","7-ELEVEN #26190 /7-ELEVEN, INC",4592,"1749 S COAST HIGHWY","OCEANSIDE",92054,"438-8444",NA,12,0,NA,NA,NA,NA,NA,-117.362651492518,33.1753528871369
"125","7-ELEVEN #26651 /7-ELEVE, INC",5032,"10195 RIVERFORD RD","LAKESIDE",92040,"579-8711",NA,12,0,NA,NA,NA,NA,NA,-116.946802327894,32.8610879900924
"126","7-ELEVEN #26909 /7-ELEVEN, INC",2514,"4210 BEYER BLVD","SAN YSIDRO",92173,"428-5045",NA,12,0,33,"SAN YSIDRO",1862.29010478,81121357.007,44119.18566,-117.044175870052,32.5586101900651
"127","7-ELEVEN #27623 /7-ELEVEN, INC",5726,"6401 MISSION GORGE RD","SAN DIEGO",92120,"282-3647",NA,12,0,20,"NAVAJO",9087.30876031,395843630.815,113466.64168,-117.09732167666,32.7901508147635
"128","7-ELEVEN #27771 /7-ELEVEN, INC",5912,"1771 ORO VISTA RD","SAN DIEGO",92154,"575-6241",NA,12,0,25,"OTAY MESA-NESTOR",5367.82083453,233822275.552,95210.7085828,-117.078577692687,32.5647018540696
"129","7-ELEVEN #32131/7-ELEVEN, INC",10061,"8261 GOLD COAST DR","SAN DIEGO",92126,"214-841-6704",NA,24,0,15,"MIRA MESA",10729.0159538,467349981.008,107975.395374,-117.14557442987,32.9049913967412
"130","7-ELEVEN #32290/7-ELEVEN, INC",11035,"8395 OTAY MESA RD","SAN DIEGO",92154,"214-841-6704",NA,48,0,26,"OTAY MESA",9316.12916262,405811314.107,105906.774574,-116.962995914639,32.5671318837542
"131","7-ELEVEN #32606/7-ELEVEN, INC",11211,"9609 AERO DR","SAN DIEGO",92123,"858 279 2911",NA,36,0,50,"KEARNY MESA",4422.62522793,192654079.159,85207.8673967,-117.121928069178,32.807889426
"132","7-ELEVEN #33100",12514,"4080 CONVOY ST","SAN DIEGO",92111,NA,NA,36,0,50,"KEARNY MESA",4422.62522793,192654079.159,85207.8673967,-117.155183041938,32.8168325525452
"133","7-ELEVEN #33376",13207,"1610 S MELROSE","VISTA",92081,NA,NA,36,0,NA,NA,NA,NA,NA,-117.265949784632,33.1828003412637
"134","A & L GAS",2058,"1801 S COAST HIGHWY","OCEANSIDE",92054,"760-433-7151",NA,24,0,NA,NA,NA,NA,NA,-117.362172017809,33.1747851694948
"135","A.V. AUTO REPAIR AND GAS",14537,"7611 LINDA VISTA RD","SAN DIEGO",92111,"858 560-9285","VUONG, ANH",24,0,12,"LINDA VISTA",2732.27635866,119018237.81,61745.5248429,-117.15755457229,32.8010726565874
"136","ALLIANCE - N.H. COZENS, INC.",2140,"1913 MAIN ST","JULIAN",92036,"760-765-0774",NA,8,0,NA,NA,NA,NA,NA,-116.600239852934,33.0765887534664
"137","ALTA VIEW UNOCAL #6918 - THURSTON CO. S",3447,"2919 ALTA VIEW DR","SAN DIEGO",92139,"858 832-9085",NA,26,0,44,"SKYLINE-PARADISE HILLS",4584.64108792,199707175.488,74959.3532478,-117.039176473419,32.6762798691303
"138","AMERICAN PROTROLEUM",15931,"1740 E VISTA WY","VISTA",92084,"619-916-6132",NA,34,0,NA,NA,NA,NA,NA,-117.226742522313,33.2260124124377
"139","AMERICANA CAR WASH",7309,"9510 SCRANTON RD","SAN DIEGO",92121,"587-2778",NA,16,0,15,"MIRA MESA",10729.0159538,467349981.008,107975.395374,-117.202191540224,32.8938987782424
"140","AMERICO GASOLINE",14994,"1285 S MISSION RD","FALLBROOK",92028,"760-728-9669",NA,32,0,NA,NA,NA,NA,NA,-117.251564100743,33.3697164735424
"141","APRO LLC #19/REGENT GAS",12095,"555 W GRAND AVE","ESCONDIDO",92025,NA,NA,12,0,NA,NA,NA,NA,NA,-117.087835946734,33.1181136505818
"142","APRO LLC #22/REGENT GAS",12098,"710 S COAST HWY 101","ENCINITAS",92024,NA,NA,16,0,NA,NA,NA,NA,NA,-117.293751410131,33.0431089869012
"143","APRO LLC #25",12101,"6839 IMPERIAL AVE","SAN DIEGO",92114,NA,NA,24,0,44,"SKYLINE-PARADISE HILLS",4584.64108792,199707175.488,74959.3532478,-117.050074046482,32.7113311844578
"144","APRO LLC #35",15867,"3860 GOVERNOR DR","SAN DIEGO",92122,"619-421-1378",NA,24,0,99,"UNIVERSITY",8676.16635746,377944307.934,116391.386355,-117.205306039268,32.8550531882451
"145","APRO LLC #36",15868,"2305 SUNSET CLIFFS BLVD","SAN DIEGO",92107,NA,NA,24,0,23,"OCEAN BEACH",641.45056657,27941631.7469,37944.3610656,-117.241772207702,32.7511253517666
"146","ARCO",11933,"12109 WOODSIDE AVE","LAKESIDE",92040,"619-561-2193",NA,24,0,NA,NA,NA,NA,NA,-116.930651231606,32.8557937797845
"147","ARCO",13511,"1875 GRAND AVE","SAN DIEGO",92109,"909-754-8038",NA,24,0,27,"PACIFIC BEACH",2609.08329077,113649440.618,60036.3387182,-117.23499239889,32.7987066379899
"148","ARCO",14956,"1015 MAIN ST","RAMONA",92065,"760-789-3830",NA,24,0,NA,NA,NA,NA,NA,-116.869054824121,33.0422006563173
"149","ARCO",14582,"1161 S MAIN ST","FALLBROOK",92028,NA,NA,28,0,NA,NA,NA,NA,NA,-117.251591515154,33.3713955292026
"150","ARCO -  #9757",2702,"8787 LAKE MURRAY BLVD","SAN DIEGO",92119,NA,NA,24,0,20,"NAVAJO",9087.30876031,395843630.815,113466.64168,-117.009943738288,32.8026426100654
"151","ARCO - AF MANAGEMENT, INC.",14591,"2615 SWEETWATER SPRING BLVD","SPRING VALLEY",91978,"619 670-9861",NA,40,0,NA,NA,NA,NA,NA,-116.969123468749,32.7262867478166
"152","ARCO - ARMOUR FOODS, INC.",14108,"7908 WINTERGARDENS","LAKESIDE",92021,"619-447-9119",NA,20,0,NA,NA,NA,NA,NA,-116.934753522488,32.8211764289223
"153","ARCO - WASHINGTON ARCO",14734,"1092 E WASHINGTON AVE","EL CAJON",92020,"619-631-0238",NA,18,0,NA,NA,NA,NA,NA,-116.944925471164,32.7879613303553
"154","ARCO #09756",2701,"6901 FEDERAL BLVD","LEMON GROVE",91945,"714-670-5179",NA,24,0,NA,NA,NA,NA,NA,-117.049235613375,32.7409485015698
"155","ARCO #1785 - ALAN'S SUNSHINE",14182,"985 TURQUOISE ST","SAN DIEGO",92109,"858-539-3992","ALAN B. FATOOHI",24,0,27,"PACIFIC BEACH",2609.08329077,113649440.618,60036.3387182,-117.255834985176,32.8091321381846
"156","ARCO #5139 CROSSRD PETR. INC.",14183,"2340 EL CAJON BLVD","SAN DIEGO",92104,"619-295-2443",NA,24,0,28,"GREATER NORTH PARK",2253.69411336,98171624.1502,50884.2009183,-117.139117655888,32.7557034935468
"157","ARCO #82378",13723,"1990 OCEANSIDE BLVD","OCEANSIDE",92054,"760-754-3334",NA,24,0,NA,NA,NA,NA,NA,-117.353839741577,33.1954466321714
"158","ARCO #9543",14919,"7594 UNIVERSITY AVE","LA MESA",91941,"619-571-5050","SADIR HIEDO, OWNER",24,0,NA,NA,NA,NA,NA,-117.033771074212,32.7606190199059
"159","ARCO #9567",2670,"9811 MISSION GORGE RD","SANTEE",92071,NA,NA,36,0,NA,NA,NA,NA,NA,-116.983282661076,32.8382760928071
"160","ARCO #9595/SUNSHINE",11554,"9108 CAMPO RD","SPRING VALLEY",91977,"619-462-5385",NA,36,0,NA,NA,NA,NA,NA,-117.000971416014,32.7517066337653
"161","ARCO #9597",14917,"1401 HILLTOP DR","CHULA VISTA",91911,"619-422-0844","ATHIR HIEDO, OWNER",24,0,NA,NA,NA,NA,NA,-117.051457758984,32.6042862402173
"162","ARCO #9598",2689,"633 BIRMINGHAM RD","CARDIFF",92007,"714-670-5179",NA,28,0,NA,NA,NA,NA,NA,-117.276006894177,33.0256657594148
"163","ARCO #9761",2724,"9393 KEARNY MESA RD","SAN DIEGO",92126,NA,NA,34,0,15,"MIRA MESA",10729.0159538,467349981.008,107975.395374,-117.117959477237,32.8932791343068
"164","ARCO /DANIEL & MATTHEW AMPM",14803,"2306 S ESCONDIDO BLVD","ESCONDIDO",92025,"760-743-1915",NA,24,0,NA,NA,NA,NA,NA,-117.071389646314,33.0938933857406
"165","ARCO AM/PM",14368,"12033A SCRIPPS SUMMIT DR","SAN DIEGO",92131,"858-621-6337",NA,54,0,9,"MIRAMAR RANCH NORTH",1894.01237496,82503119.1815,50714.3797568,-117.100224163098,32.9379422046063
"166","ARCO AM/PM",16157,"607 N DOUGLAS","OCEANSIDE",92054,NA,NA,36,0,NA,NA,NA,NA,NA,-117.323225764719,33.2439842693865
"167","ARCO AM/PM",16101,"765 E ST","CHULA VISTA",91910,NA,NA,52,0,NA,NA,NA,NA,NA,-117.09905683863,32.6402092839316
"168","ARCO AM/PM",13591,"12805 POWY RD","POWY",92064,"714-709-3367",NA,24,0,NA,NA,NA,NA,NA,-117.053517027652,32.9561794899543
"169","ARCO AM/PM",13023,"404 E CHASE AVE","EL CAJON",92020,"619-442-8410",NA,24,0,NA,NA,NA,NA,NA,-116.957401267678,32.7807375545107
"170","ARCO AM/PM - YOUSSEFS",5270,"9065 CAMPO RD","SPRING VALLEY",91977,"462-7666",NA,24,0,NA,NA,NA,NA,NA,-117.001894623103,32.7512660638982
"171","ARCO AM/PM #01790 MISSION GORGE",2344,"6110 MISSION GORGE RD","SAN DIEGO",92120,"619-283-2400",NA,24,0,20,"NAVAJO",9087.30876031,395843630.815,113466.64168,-117.098108189807,32.7853221478243
"172","ARCO AM/PM #06146",13394,"725 N 2ND ST","EL CAJON",92021,NA,NA,24,0,NA,NA,NA,NA,NA,-116.935296138592,32.8043235833808
"173","ARCO AM/PM 5549/MAXELL ENTERPRISES",6923,"1550 E GRAND AVE","ESCONDIDO",92027,"760-741-5960","DIXIE LINEBEGER",24,0,NA,NA,NA,NA,NA,-117.059255740401,33.1303267247028
"174","ARCO AM/PM -HOME",15643,"4333 HOME AVE","SAN DIEGO",92105,"619 527-4834",NA,40,0,56,"MID-CITY:CITY HEIGHTS",2935.50927873,127870892.422,53479.7643387,-117.101657018713,32.7268339435771
"175","ARCO- AM/PM WEST MAIN ARCO #88312",13554,"1245 W MAIN ST","EL CAJON",92020,"619-444-6012",NA,24,0,NA,NA,NA,NA,NA,-116.978808202919,32.7946938253824
"176","ARCO AMPM",6753,"9606 WINTERGARDENS","LAKESIDE",92040,"619 823 3835",NA,24,0,NA,NA,NA,NA,NA,-116.931559633161,32.852414338466
"177","ARCO AMPM #1986",13747,"6130 BALBOA AVE","SAN DIEGO",92111,NA,"CROSSRD PETROLEUM",12,0,6,"CLAIREMONT MESA",8539.17388935,371970138.828,91823.2606488,-117.175685396936,32.8206380616192
"178","ARCO AMPM #5181",6188,"6616 MIRAMAR RD","SAN DIEGO",92121,NA,NA,24,0,15,"MIRA MESA",10729.0159538,467349981.008,107975.395374,-117.171956221014,32.878098330233
"179","ARCO AMPM #5208",2684,"407 E ST","CHULA VISTA",91910,NA,NA,24,0,NA,NA,NA,NA,NA,-117.085800209016,32.6438320497076
"180","ARCO AMPM #5217",2722,"798 3RD AVE","CHULA VISTA",91910,NA,NA,24,0,NA,NA,NA,NA,NA,-117.073611689716,32.6243558840996
"181","ARCO AMPM #5218",2698,"1725 BRDWY AVE","CHULA VISTA",91911,"619-429-1631",NA,38,0,NA,NA,NA,NA,NA,-117.074618508662,32.5944683349366
"182","ARCO AMPM #5277",7031,"5555 MISSION RD","BONSALL",92003,NA,NA,24,0,NA,NA,NA,NA,NA,-117.226250018578,33.2896778818918
"183","ARCO AMPM #5283",2639,"1518 N MAGNOLIA AVE","EL CAJON",92020,NA,NA,36,0,NA,NA,NA,NA,NA,-116.962677425117,32.8185935802589
"184","ARCO AMPM #5296",7294,"12610 SABRE SPRINGS PKWY","SAN DIEGO",92128,NA,NA,24,0,5,"SABRE SPRINGS",1595.33004886,69492586.3865,41195.8491676,-117.096326972676,32.9482135976972
"185","ARCO AMPM #5323",7099,"2510 OTAY CENTER DR","SAN DIEGO",92154,NA,NA,24,0,26,"OTAY MESA",9316.12916262,405811314.107,105906.774574,-116.942641434652,32.5531904394273
"186","ARCO AMPM #5363",7821,"3770 MURPHY CANYON RD","SAN DIEGO",92123,NA,NA,24,0,50,"KEARNY MESA",4422.62522793,192654079.159,85207.8673967,-117.117550111581,32.8108127390133
"187","ARCO AMPM #5366",683,"1991 PALOMAR AIRPORT RD","CARLSBAD",92009,NA,NA,36,0,NA,NA,NA,NA,NA,-117.282075341572,33.1190775799871
"188","ARCO AMPM #5367",7512,"1625 HERITAGE RD","SAN DIEGO",92154,NA,NA,24,0,26,"OTAY MESA",9316.12916262,405811314.107,105906.774574,-116.996357338697,32.5677484069943
"189","ARCO AMPM #5441",437,"9720 CARROLL CENTRE RD","SAN DIEGO",92126,NA,NA,36,0,15,"MIRA MESA",10729.0159538,467349981.008,107975.395374,-117.122467721001,32.8994669276357
"190","ARCO AMPM #5609",1927,"6098 UNIVERSITY AVE","SAN DIEGO",92115,NA,NA,24,0,57,"MID-CITY:EASTERN AREA",3115.1057929,135693919.385,61687.0047213,-117.064993816132,32.7530775835564
"191","ARCO AMPM #598",2911,"1817 EUCLID AVE","SAN DIEGO",92105,NA,NA,16,0,57,"MID-CITY:EASTERN AREA",3115.1057929,135693919.385,61687.0047213,-117.08460195381,32.7245703212049
"192","ARCO AMPM #6195",2272,"9320 MIRA MESA BLVD","SAN DIEGO",92126,"858-566-1944",NA,36,0,15,"MIRA MESA",10729.0159538,467349981.008,107975.395374,-117.124423905422,32.9176299813341
"193","ARCO AMPM #633",2902,"800 PALOMAR ST","CHULA VISTA",91911,"619-424-7040",NA,24,0,NA,NA,NA,NA,NA,-117.088419858552,32.6044926832307
"194","ARCO AMPM #640",2905,"593 N MOLLISON AVE","EL CAJON",92021,NA,NA,24,0,NA,NA,NA,NA,NA,-116.95064566095,32.8020626962676
"195","ARCO AMPM #695",2915,"3775 MASSACHUSETTS AVE","LA MESA",91941,"310-402-1299",NA,24,0,NA,NA,NA,NA,NA,-117.042488846102,32.7458060057467
"196","ARCO AMPM #9596",14918,"7974 UNIVERSITY AVE","LA MESA",91941,"619-571-5050","SADIR HIEDO, OWNER",36,0,NA,NA,NA,NA,NA,-117.02641921997,32.7653712662121
"197","ARCO AMPM MINI MART",3477,"2940 LYTTON ST","SAN DIEGO",92110,"619-226-1553",NA,36,0,14,"MIDWAY-PACIFIC HIGHWAY",918.44193686,39555950.1191,48087.3721621,-117.211939469189,32.7442462920197
"198","ARCO AM-PM-CLAIRMONT MESA",2120,"8820 CLAIREMONT MESA BLVD","SAN DIEGO",92123,"858-492-9325",NA,24,0,50,"KEARNY MESA",4422.62522793,192654079.159,85207.8673967,-117.137863523079,32.8318538656594
"199","ARCO -BARNICLES EXPRESS",4414,"845 E VISTA WY","VISTA",92084,"760-871-0740",NA,36,0,NA,NA,NA,NA,NA,-117.233885873126,33.2099609488281
"200","ARCO BRDWY ARCO",15585,"8001 BRDWY AVE","LEMON GROVE",91945,"619 464-6493",NA,24,0,NA,NA,NA,NA,NA,-117.025997851176,32.7426483788471
"201","ARCO -MISSION GAS & MINI MART",15589,"1920 MISSION AVE","OCEANSIDE",92054,"760 754-0220",NA,52,0,NA,NA,NA,NA,NA,-117.365031123673,33.2044162163295
"202","ARCO -SAN MARCOS AMPM",14765,"125 N RANCHO SANTA FE RD","SAN MARCOS",92069,"760-744-9012",NA,24,0,NA,NA,NA,NA,NA,-117.197464403472,33.1508326114797
"203","ARCO/RANCHO BERNARDO AM/PM",11605,"11891 RANCHO BERNARDO RD","SAN DIEGO",92128,"858-487-1565",NA,24,0,31,"RANCHO BERNARDO",6582.52496453,286763101.68,82435.4989635,-117.07482477412,33.0225099313058
"204","ARCO-BALBOA ARCO STATION",4626,"7731 BALBOA AVE","SAN DIEGO",92111,"619-541-2576",NA,28,0,50,"KEARNY MESA",4422.62522793,192654079.159,85207.8673967,-117.158231391226,32.8209418739538
"205","ARCO-BONITA GAS MINI MART",2731,"4498 BONITA RD","BONITA",91902,"619-479-2272",NA,24,0,NA,NA,NA,NA,NA,-117.031555924726,32.660891897461
"206","ARCO-BP WEST COAST PRODUCTS, LLC",13407,"2295 E HARBOR DR","SAN DIEGO",92113,NA,NA,16,0,2,"BARRIO LOGAN",551.69622779,24031887.8004,41958.6535406,-117.141845574041,32.6937409613367
"207","ARCO-CALIFORNIA FINEST OIL/IMPERIAL ARC",11938,"6311 IMPERIAL AVE","SAN DIEGO",92114,"619-263-9512",NA,24,0,11,"ENCANTO NEIGHBORHOODS,SOUTHEASTERN",3810.65246109,165991994.197,65747.9107336,-117.062075669135,32.7097867502673
"208","ARCO-CHULA VISTA ENTERTAINMENT INC",13179,"779 W SAN YSIDRO BLVD","SAN YSIDRO",92173,"619-428-3593",NA,24,0,33,"SAN YSIDRO",1862.29010478,81121357.007,44119.18566,-117.059058022232,32.5579333627512
"209","ARCO-COLLEGE",13163,"5111 COLLEGE AVE","SAN DIEGO",92115,"619.286.3500",NA,30,0,38,"COLLEGE AREA",1968.74184121,85759366.4352,48266.2336215,-117.069556414779,32.7710015890898
"210","ARCO-CROSSRD PETRO",14326,"810 TAMARACK AVE","CARLSBAD",92008,"760 730-1549","HADDAD, ED",40,0,NA,NA,NA,NA,NA,-117.338013585268,33.1520759271585
"211","ARCO-GAS DEPOT, THE",2551,"495 S MEADOWBROOK DR","SAN DIEGO",92114,"619-267-1594",NA,24,0,44,"SKYLINE-PARADISE HILLS",4584.64108792,199707175.488,74959.3532478,-117.025729764339,32.6979741161471
"212","ARCO-GOLDEN LINA",4150,"4498 CLAIREMONT MESA BLVD","SAN DIEGO",92117,"858-270-7755",NA,24,0,6,"CLAIREMONT MESA",8539.17388935,371970138.828,91823.2606488,-117.195237920174,32.8348001302268
"213","ARCO-H ST ARCO",13042,"720 H ST","CHULA VISTA",91910,"619.425.5356",NA,24,0,NA,NA,NA,NA,NA,-117.094270266586,32.6293467959287
"214","ARCO-McBRIDES MISSION VALLEY",2537,"915 CAM DEL RIO S","SAN DIEGO",92108,"619-607-8000",NA,16,0,19,"MISSION VALLEY",3215.64828623,140082535.581,89502.8557087,-117.155295024346,32.7640969697565
"215","ARCO-MINI MART-WILD CAT 007/CALGARY EN",3738,"5405 CLAIREMONT MESA BLVD","SAN DIEGO",92117,"858-279-6661",NA,24,0,6,"CLAIREMONT MESA",8539.17388935,371970138.828,91823.2606488,-117.175287329728,32.8340205135047
"216","ARCO-MORENA SERVICE STATION",11937,"2505 MORENA BLVD","SAN DIEGO",92110,"619-276-3177",NA,36,0,6,"CLAIREMONT MESA",8539.17388935,371970138.828,91823.2606488,-117.205587603681,32.7886177198769
"217","ARCO-MORENA SMOG PROS",11425,"1550 MORENA BLVD","SAN DIEGO",92110,"619-275-0777",NA,24,0,6,"CLAIREMONT MESA",8539.17388935,371970138.828,91823.2606488,-117.206284472943,32.7745817760095
"218","ARCO-PAULETTE'S #1",5493,"2290 CORONADO AVE","SAN DIEGO",92154,"619 429-8848",NA,24,0,25,"OTAY MESA-NESTOR",5367.82083453,233822275.552,95210.7085828,-117.084470808387,32.5767886964927
"219","ARCO-PDM AM/PM - ARCO",14066,"3804 PLAZA DR","OCEANSIDE",92056,"760-724-6165","PAUL LECONTE(PRES), DONNA LE",24,0,NA,NA,NA,NA,NA,-117.293120411153,33.1827056199025
"220","ARCO-ST.CLAIR ENTERPRISES INC",4760,"301 E SAN YSIDRO BLVD","SAN YSIDRO",92173,"619-662-2446",NA,30,0,33,"SAN YSIDRO",1862.29010478,81121357.007,44119.18566,-117.039379839897,32.5517904843392
"221","ARCO-THRIFTY  #9599",2690,"3860 OLD TOWN AVE","SAN DIEGO",92110,NA,NA,38,0,24,"OLD TOWN SAN DIEGO",274.8004298,11969776.3457,17987.2802808,-117.193297865073,32.7485508116488
"222","BJ RENTALS",10672,"3959 PACIFIC HIGHWY","SAN DIEGO",92110,NA,"STEVE VAN CURA",2,0,14,"MIDWAY-PACIFIC HIGHWAY",918.44193686,39555950.1191,48087.3721621,-117.189326426835,32.7430411058172
"223","BJ'S RENTALS",15276,"7585 MISSION GORGE RD","SAN DIEGO",92120,NA,"STEVE VAN CURA",2,0,20,"NAVAJO",9087.30876031,395843630.815,113466.64168,-117.074936157084,32.8075297078734
"224","BJ'S RENTALS",15278,"13044 POWY RD","POWY",92064,"858 735-2723","STEVE VAN CURA",2,0,NA,NA,NA,NA,NA,-117.048142300489,32.957206138694
"225","BJ'S RENTALS",15309,"2055 MAIN ST","RAMONA",92065,"760 789-0931",NA,2,0,NA,NA,NA,NA,NA,-116.885988826891,33.0317480558892
"226","BOB'S GAS",1986,"3377 SANDROCK RD","SAN DIEGO",92123,"619-279-2540",NA,24,0,35,"SERRA MESA",2210.57457253,96335366.3695,57827.3555222,-117.139601093737,32.8042249939794
"227","BONITA VISTA GAS & AUTO",2651,"903 OTAY LAKES RD","CHULA VISTA",91913,"510-842-9002",NA,24,0,NA,NA,NA,NA,NA,-116.993701948495,32.6422640269378
"228","BOTTLE SHOPPE",3865,"590 PALM CANYON DR","BORREGO SPRIN",92004,"767-5513",NA,8,0,NA,NA,NA,NA,NA,-116.380024849079,33.2575492421827
"229","CANYON FUEL",14775,"501 TELEGRAPH CANYON RD","CHULA VISTA",91910,"619-421-3000",NA,26,0,NA,NA,NA,NA,NA,-117.041823582666,32.6290724734262
"230","CARLSBAD GAS & PROPANE, INC.",11832,"1089 CARLSBAD VILLAGE DR","CARLSBAD",92008,"760-729-0616",NA,28,0,NA,NA,NA,NA,NA,-117.342750825687,33.16265037718
"231","CARMALOR, INC.",14403,"350 E H ST","CHULA VISTA",91910,"619-580-9867","RATONEL, LORNA",42,0,NA,NA,NA,NA,NA,-117.050035422892,32.6406310725862
"232","CHAMPAGNE GAS",9494,"8808 LAWRENCE WELK DR","ESCONDIDO",92026,"760-749-6195",NA,18,0,NA,NA,NA,NA,NA,-117.144762643167,33.2330590573568
"233","CHEVRON",14592,"805 BIRMINGHAM DR","CARDIFF",92007,"510-842-9002",NA,30,0,NA,NA,NA,NA,NA,-117.273427044134,33.0261694828489
"234","CHEVRON",12579,"9312 MISSION GORGE RD","SANTEE",92071,"619 562-1242",NA,24,0,NA,NA,NA,NA,NA,-116.995367711515,32.8390255454659
"235","CHEVRON",13486,"13985 TORREY DEL MAR DR","SAN DIEGO",92130,NA,NA,36,0,52,"TORREY HIGHLANDS",1505.5271115,65579900.4282,40148.1925471,-117.161566500171,32.9701334055443
"236","CHEVRON",1803,"1145 TAVERN RD","ALPINE",91901,"445-5260",NA,44,0,NA,NA,NA,NA,NA,-116.780299733635,32.8417564332123
"237","CHEVRON - #91191*",3035,"1601 N COAST HIGHWY","OCEANSIDE",92054,"510-842-9002",NA,24,0,NA,NA,NA,NA,NA,-117.38739761313,33.209231200825
"238","CHEVRON - #91450",3527,"2432 CORONADO AVE","SAN DIEGO",92154,"510-842-9002",NA,24,0,25,"OTAY MESA-NESTOR",5367.82083453,233822275.552,95210.7085828,-117.079910644101,32.5768524968103
"239","CHEVRON - #91496",2652,"215 E VIA RANCHO PKWY","ESCONDIDO",92025,"510-842-9002",NA,24,0,NA,NA,NA,NA,NA,-117.066449276807,33.0680849822355
"240","CHEVRON - #92779",3905,"696 N MOLLISON AVE","EL CAJON",92021,"510-842-9002",NA,24,0,NA,NA,NA,NA,NA,-116.951312714816,32.8040944820997
"241","CHEVRON - #95195*",3827,"220 SYCAMORE RD","SAN YSIDRO",92173,"510-842-9002",NA,36,0,33,"SAN YSIDRO",1862.29010478,81121357.007,44119.18566,-117.044784769423,32.5503601765281
"242","CHEVRON #108/G & M OIL CO",12637,"8780 LAKE MURRAY BLVD","SAN DIEGO",92119,NA,NA,28,0,20,"NAVAJO",9087.30876031,395843630.815,113466.64168,-117.011045507803,32.8026602300034
"243","CHEVRON #138, G & M OIL CO",15259,"5103 WARING RD","SAN DIEGO",92120,"714 375-4700",NA,28,0,20,"NAVAJO",9087.30876031,395843630.815,113466.64168,-117.082192888028,32.7907199671919
"244","CHEVRON #203188",10823,"604 DENNERY RD","SAN DIEGO",92154,"510-842-9002",NA,36,0,26,"OTAY MESA",9316.12916262,405811314.107,105906.774574,-117.032853864955,32.5832766775034
"245","CHEVRON #203217",9855,"770 PLAZA COURT","CHULA VISTA",91910,"510-842-9002",NA,36,0,NA,NA,NA,NA,NA,-117.029774204603,32.6366880625854
"246","CHEVRON #205126",12761,"9936 MERCY RD","SAN DIEGO",92129,"858-271-8759",NA,36,0,15,"MIRA MESA",10729.0159538,467349981.008,107975.395374,-117.112870289692,32.9377274811272
"247","CHEVRON #46/G&M OIL CO., INC.",1758,"850 PALOMAR AIRPORT RD","CARLSBAD",92008,"714-375-4700",NA,32,0,NA,NA,NA,NA,NA,-117.320273339687,33.1217198430441
"248","CHEVRON #53 -G&M OIL CO.",10448,"601 N COAST HIGHWY","OCEANSIDE",92054,"714-375-4700",NA,28,0,NA,NA,NA,NA,NA,-117.382890108934,33.1994654485648
"249","CHEVRON #54/G&M OIL CO., INC.",3365,"8110 BALBOA AVE","SAN DIEGO",92111,"714-375-4700",NA,78,0,50,"KEARNY MESA",4422.62522793,192654079.159,85207.8673967,-117.148360489007,32.8224000219328
"250","CHEVRON #59-G&M OIL CO., INC.",10895,"1701 E MAIN ST","EL CAJON",92021,"714-375-4700",NA,42,0,NA,NA,NA,NA,NA,-116.917975603736,32.8124258189809
"251","CHEVRON #63/G&M OIL CO., INC.",5668,"7448 JACKSON DR","SAN DIEGO",92119,"714-375-4700",NA,28,0,20,"NAVAJO",9087.30876031,395843630.815,113466.64168,-117.046108208762,32.8033488562183
"252","CHEVRON #73 -G&M OIL CO., INC.",2502,"3602 EL CAJON BLVD","SAN DIEGO",92104,"714-375-4700",NA,42,0,59,"MID-CITY:NORMAL HEIGHTS",846.03495556,36853397.1634,25359.5506162,-117.115489144601,32.7556100289266
"253","CHEVRON #91408",2048,"8888 N MAGNOLIA AVE","SANTEE",92071,"510-842-9002",NA,42,0,NA,NA,NA,NA,NA,-116.967539393296,32.8378432453841
"254","CHEVRON #91739",1970,"7209 BRDWY","LEMON GROVE",91945,"510-842-9002",NA,44,0,NA,NA,NA,NA,NA,-117.042466704694,32.7420785074949
"255","CHEVRON #94919",1154,"3359 UNIVERSITY AVE","SAN DIEGO",92104,"510-842-9002",NA,30,0,56,"MID-CITY:CITY HEIGHTS",2935.50927873,127870892.422,53479.7643387,-117.121556205299,32.7486208275751
"256","CHEVRON #94991",1929,"2290 CAM DEL RIO NO","SAN DIEGO",92108,"510-842-9002",NA,18,0,19,"MISSION VALLEY",3215.64828623,140082535.581,89502.8557087,-117.140884768745,32.7715537871867
"257","CHEVRON /DEL MAR HIGHLANDS CAR WASH",13408,"12889 EL CAM REAL","SAN DIEGO",92130,NA,"KAREN FORBES",36,0,21,"CARMEL VALLEY",4525.42412552,197127540.728,77310.6067786,-117.23363991326,32.9519205975545
"258","CHEVRON /G&M OIL CO., #125",14032,"3502 NATIONAL AVE","SAN DIEGO",92113,"714-375-4700",NA,30,0,37,"SOUTHEASTERN SAN DIEGO,SOUTHEASTERN",2928.98056395,127586393.366,62401.1417428,-117.118597828971,32.6962991606869
"259","CHEVRON -COSTA VERDE CAR WASH, INC.",12397,"8505 COSTA VERDE BLVD","SAN DIEGO",92122,NA,NA,48,0,99,"UNIVERSITY",8676.16635746,377944307.934,116391.386355,-117.214912847694,32.8677165779358
"260","CHEVRON -LA JOLLA CHEVRON",14434,"7475 LA JOLLA BLVD","LA JOLLA",92037,"858 454-5909","MEDEIROS, CHRIS R.",24,0,10,"LA JOLLA",5718.59815526,249104798.017,87358.6662548,-117.278074756727,32.8389864353752
"261","CHEVRON -RANCHO BERNARDO CAR WASH LLC*",2345,"16757 BERNARDO CENTER DR","SAN DIEGO",92128,"619-234-7989","RANCHO BERNARDO CAR WASH LLC",36,0,31,"RANCHO BERNARDO",6582.52496453,286763101.68,82435.4989635,-117.074352983478,33.0186487127258
"262","CHEVRON- S & R CHEVRON",15374,"1575 E VALLEY PKWY","ESCONDIDO",92027,"760 745-1415",NA,40,0,NA,NA,NA,NA,NA,-117.059598337266,33.1334697572593
"263","CHEVRON STATION #96929",3043,"11095 CARMEL MTN RD","SAN DIEGO",92129,NA,NA,36,0,29,"RANCHO PENASQUITOS",6456.34490358,281238503.825,93268.9199605,-117.090076693801,32.9770810220343
"264","CHEVRON-ALAN RITCHIE",11940,"104 W SAN YSIDRO BLVD","SAN YSIDRO",92173,"619-316-5531",NA,24,0,33,"SAN YSIDRO",1862.29010478,81121357.007,44119.18566,-117.044393763155,32.5519866847901
"265","CHEVRON-BARRY'S",11950,"7070 CLAIREMONT MESA BLVD","SAN DIEGO",92111,"858 278-3841",NA,42,0,50,"KEARNY MESA",4422.62522793,192654079.159,85207.8673967,-117.164239141076,32.8330511303415
"266","CHEVRON-CITY HEIGHTS CHEVRON",12679,"4055 UNIVERSITY AVE","SAN DIEGO",92105,"619-269-8955",NA,40,0,56,"MID-CITY:CITY HEIGHTS",2935.50927873,127870892.422,53479.7643387,-117.107816296598,32.7489541814821
"267","CHEVRON-DEAN & HOWETH, INC.",1976,"5322 JACKSON DR","LA MESA",91942,"619-660-1113",NA,24,0,NA,NA,NA,NA,NA,-117.015543635292,32.7759579998852
"268","CHEVRON-DEL CERRO",13403,"6301 DEL CERRO BLVD","SAN DIEGO",92120,"619-583-1122","DARRYL GINOS",48,0,20,"NAVAJO",9087.30876031,395843630.815,113466.64168,-117.061652856564,32.7832045644256
"269","CHEVRON-FOOTHILL",13176,"1211 E VISTA WY","VISTA",92084,"760-945-3828",NA,58,0,NA,NA,NA,NA,NA,-117.225613884002,33.2177498023417
"270","CHEVRON-G & M OIL CO. INC. #106",11943,"1832 WASHINGTON ST","SAN DIEGO",92103,"714 375 4700",NA,28,0,42,"UPTOWN",2646.93163314,115753599.083,61250.8361473,-117.181951832771,32.7431829267308
"271","CHEVRON-G & M OIL CO., LLC #112",12701,"12410 POWY RD","POWY",92064,"858 513-9143",NA,34,0,NA,NA,NA,NA,NA,-117.062109521039,32.9521765368395
"272","CHEVRON-G&M OIL CO. #94",11945,"1298 BRDWY","EL CAJON",92021,"714 375 4700",NA,36,0,NA,NA,NA,NA,NA,-116.936124267939,32.8080661681848
"273","CHEVRON-JOSEPH RANDAZZO",11948,"1575 GARNET AVE","SAN DIEGO",92109,"858-273-6621",NA,30,0,27,"PACIFIC BEACH",2609.08329077,113649440.618,60036.3387182,-117.241094782394,32.7994775482038
"274","CHEVRON-PHIL M. MAESTAS",11947,"4180 PARK BLVD","SAN DIEGO",92103,"619-291-5211",NA,24,0,42,"UPTOWN",2646.93163314,115753599.083,61250.8361473,-117.146694076333,32.7540321856483
"275","CHEVRON-RAMONA",11942,"802 MAIN ST","RAMONA",92065,"760-789-6583","DONALD GINOS - PRESIDENT",32,0,NA,NA,NA,NA,NA,-116.865375767277,33.0434018717274
"276","CHEVRON-SCRIPPS MIRAMAR CAR WASH",1908,"9650 MIRAMAR RD","SAN DIEGO",92126,"619-234-7989",NA,34,0,15,"MIRA MESA",10729.0159538,467349981.008,107975.395374,-117.121039914464,32.8942867771607
"277","CHEVRON-SMR CHEVRON",12934,"9749 CAMPO RD","SPRING VALLEY",91977,"619-469-6881",NA,32,0,NA,NA,NA,NA,NA,-116.985707822881,32.7476731204001
"278","CHEVRON-SWEETWATER CAR WASH",14715,"1999 SWEETWATER RD","NATIONAL CITY",91950,NA,NA,44,0,NA,NA,NA,NA,NA,-117.079381308653,32.6616533357886
"279","CIRCLE K - #2702981",2443,"12320 WILLOW RD","LAKESIDE",92040,"602-728-3593",NA,12,0,NA,NA,NA,NA,NA,-116.923508944361,32.8745822936515
"280","CIRCLE K - #5095",7133,"4360 GENESEE AVE","SAN DIEGO",92117,"602-728-3593",NA,12,0,6,"CLAIREMONT MESA",8539.17388935,371970138.828,91823.2606488,-117.184277861299,32.8226883366831
"281","CIRCLE K - #8545",5985,"1161 E VALLEY PKWY","ESCONDIDO",92025,"602-728-3593",NA,12,0,NA,NA,NA,NA,NA,-117.06714455395,33.1299808713892
"282","CIRCLE K - #8688",6757,"10520 CAM RUIZ","MIRA MESA",92126,"602-278-3593",NA,12,0,15,"MIRA MESA",10729.0159538,467349981.008,107975.395374,-117.145812768453,32.9087180228684
"283","CIRCLE K/76 #2702955",13834,"10219 MAST BLVD","SANTEE",92071,"281-293-1000",NA,12,0,NA,NA,NA,NA,NA,-116.975007114649,32.854737130267
"284","CIRCLE K/76 #2702987",13836,"1291 HOLLISTER","SAN DIEGO",92154,"281-293-1000",NA,12,0,25,"OTAY MESA-NESTOR",5367.82083453,233822275.552,95210.7085828,-117.083775879074,32.5731520000159
"285","CIRCLE K/76 #2705213",13844,"1061 EL NORTE PKWY","ESCONDIDO",92026,"281-293-1000",NA,24,0,NA,NA,NA,NA,NA,-117.107516491694,33.1467382104813
"286","CIRCLE K/76 #2707953",13841,"481 SWEETWATER RD","SPRING VALLEY",91977,"281-293-1000",NA,12,0,NA,NA,NA,NA,NA,-117.010291214378,32.7064421481623
"287","CIRCLE K/76 #2708581",13842,"1666 ALPINE BLVD","ALPINE",91901,"281-293-1000",NA,12,0,NA,NA,NA,NA,NA,-116.778740924027,32.8380822560406
"288","CIRCLE K/76 #2708675",13843,"8899 LA MESA BLVD","LA MESA",91941,"281-293-1000",NA,12,0,NA,NA,NA,NA,NA,-117.004919329666,32.7730787991589
"289","CIRCLE MARKET",12239,"3504 BANCROFT DR","SPRING VALLEY",91977,"619-464-6957",NA,12,0,NA,NA,NA,NA,NA,-117.003777563814,32.7447729633973
"290","CITGO-SUPER 7 #19273/7-ELEVEN, INC",2159,"7801 CLAIREMONT MESA BLVD","SAN DIEGO",92111,"465-2101",NA,32,0,50,"KEARNY MESA",4422.62522793,192654079.159,85207.8673967,-117.152858974519,32.8323831328281
"291","CITGO-SUPER 7 #19548/7-ELEVEN, INC",2160,"13801 MANGO DR","DEL MAR",92014,"278-2101",NA,24,0,40,"TORREY PINES",2722.31778494,118584162.712,101824.664393,-117.24708362437,32.9491475460161
"292","CLAIREMONT AUTO CARE",13579,"4495 CLAIREMONT MESA BLVD","SAN DIEGO",92117,"619-972-6566",NA,18,0,6,"CLAIREMONT MESA",8539.17388935,371970138.828,91823.2606488,-117.195179190719,32.8341818338395
"293","CLAIREMONT EQUIPMENT RENTALS",642,"1330 W MISSION RD","ESCONDIDO",92029,"278-8351",NA,2,0,NA,NA,NA,NA,NA,-117.108654397241,33.1256403839381
"294","CLAIREMONT EQUIPMENT RENTALS",774,"4726 CONVOY ST","SAN DIEGO",92111,"278-8351",NA,2,0,50,"KEARNY MESA",4422.62522793,192654079.159,85207.8673967,-117.154539059069,32.8274946420071
"295","CORONADO ISLAND EXPRESS",2080,"400 ORANGE AVE","CORONADO",92118,"619-435-8180",NA,12,0,NA,NA,NA,NA,NA,-117.175363726967,32.6944985496634
"296","COSTCO WHOLESALE #401/ATTN:LICENSING",457,"4605 MORENA BLVD","SAN DIEGO",92117,NA,NA,32,0,6,"CLAIREMONT MESA",8539.17388935,371970138.828,91823.2606488,-117.225387130895,32.8223433285076
"297","COSTCO WHOLESALE #460/ATTN:LICENSING",10563,"895 E H ST","CHULA VISTA",91910,NA,NA,32,0,NA,NA,NA,NA,NA,-117.022053179799,32.6372616378822
"298","COSTCO WHOLESALE #483",11399,"650 GATEWY CENTER DR","SAN DIEGO",92102,"619-358-2303",NA,24,0,37,"SOUTHEASTERN SAN DIEGO,SOUTHEASTERN",2928.98056395,127586393.366,62401.1417428,-117.116096929036,32.7127143227896
"299","COSTCO WHOLESALE #775",14468,"12155 TECH CENTER DR","POWY",92064,"425-313-8100",NA,32,0,NA,NA,NA,NA,NA,-117.033043032195,32.9367158483337
"300","COSTCO WHOLESALE CORP. #488",11380,"2345 FENTON PKWY","SAN DIEGO",92108,"619-358-4003",NA,32,0,19,"MISSION VALLEY",3215.64828623,140082535.581,89502.8557087,-117.12890163462,32.7799020598893
"301","COUNTY OF SAN DIEGO PUBLIC WKS/BONSALL",10344,"2370 PALA RD","FALLBROOK",92003,NA,NA,4,0,NA,NA,NA,NA,NA,-117.220584327952,33.2987498853736
"302","COUNTY OF SAN DIEGO PUBLIC WKS/PALOMAR",10345,"20745 STATE PARK RD","PALOMAR",92060,NA,NA,2,0,NA,NA,NA,NA,NA,-116.883474432051,33.3184966774988
"303","COUNTY OF SAN DIEGO/ALPINE RD STATION",10340,"2914 TAVERN RD","ALPINE",91901,NA,NA,4,0,NA,NA,NA,NA,NA,-116.78088982052,32.8094994843628
"304","COUNTY OF SAN DIEGO/BORREGO RD STATION",10350,"1550 RANGO WY","BORREGO SPRIN",92004,NA,NA,4,0,NA,NA,NA,NA,NA,-116.353135407626,33.2227905345139
"305","COUNTY OF SAN DIEGO/CAMPO RD STATION",10332,"970 FOREST GATE RD","CAMPO",91906,NA,NA,4,0,NA,NA,NA,NA,NA,-116.473091238991,32.6095828111273
"306","COUNTY OF SAN DIEGO/DIVISION 1",13651,"11970 SINGER LN","SPRING VALLEY",91977,NA,NA,4,0,NA,NA,NA,NA,NA,-116.942061765846,32.737195957501
"307","COUNTY OF SAN DIEGO/ENCINITAS FLEET GAR",10403,"179 N EL CAM REAL","ENCINITAS",92024,NA,NA,2,0,NA,NA,NA,NA,NA,-117.256770602905,33.0496444467419
"308","COUNTY OF SAN DIEGO/FLEET GARAGE",10404,"1251 UNION ST","SAN DIEGO",92101,NA,NA,2,0,4,"DOWNTOWN",1516.21502084,66053186.5307,55781.5643997,-117.165183870977,32.7183495351095
"309","COUNTY OF SAN DIEGO/MT.LAGUNA RD STATI",10041,"33947 MTLAGUNA DR","MT.LAGUNA",91948,NA,NA,2,0,NA,NA,NA,NA,NA,-116.418201376923,32.8621751964645
"310","COUNTY OF SAN DIEGO/OPERATIONS CENTER",10346,"5555 OVERLAND AVE","SAN DIEGO",92123,NA,NA,6,0,50,"KEARNY MESA",4422.62522793,192654079.159,85207.8673967,-117.130867168261,32.835081244433
"311","COUNTY OF SAN DIEGO/VISTA REGIONAL CENT",10336,"325 MELROSE DR","VISTA",92083,NA,NA,4,0,NA,NA,NA,NA,NA,-117.254894729784,33.200703314549
"312","CROWN POINT GAS",15352,"3804 INGRAHAM ST","SAN DIEGO",92109,NA,NA,30,0,27,"PACIFIC BEACH",2609.08329077,113649440.618,60036.3387182,-117.237991378495,32.7890012853844
"313","CROWNAIR/AIR 88, INC.",5694,"3753 JOHN J MONTGOMERY DR","SAN DIEGO",92123,"619-277-1453",NA,2,0,50,"KEARNY MESA",4422.62522793,192654079.159,85207.8673967,-117.139646364917,32.8151479454887
"314","DAN SMITH'S ALPINE BLVD GAS & DIESEL",15804,"2232 ALPINE BLVD","ALPINE",91901,"619 659-3267",NA,28,0,NA,NA,NA,NA,NA,-116.765454068414,32.8357771515369
"315","DANA LANDING FUEL DOCK",1458,"2590 INGRAHAM ST","SAN DIEGO",92109,"619-226-2929",NA,4,0,17,"MISSION BAY PARK",4292.9465176,187023803.41,76708.5955355,-117.235170546967,32.7683799423834
"316","DANIEL'S LIQUOR",5339,"1350 MAIN ST","RAMONA",92065,"789-1155",NA,24,0,NA,NA,NA,NA,NA,-116.874469311994,33.038406039563
"317","EAGLE GAS & LP",2062,"8445 LOS COCHES RD","EL CAJON",92021,"619-443-8888",NA,28,0,NA,NA,NA,NA,NA,-116.903577969104,32.8281729232414
"318","EMERALD OIL",11633,"4142 ADAMS AVE","SAN DIEGO",92116,"619-283-2301",NA,18,0,58,"MID-CITY:KENSINGTON-TALMADGE",1156.7904467,50389965.153,32385.5998705,-117.105966106722,32.7635636493275
"319","EMERALD OIL",13691,"5600 BALTIMORE DR","LA MESA",91942,"619 726-5151","HOLLAK, DAVID",36,0,NA,NA,NA,NA,NA,-117.033567646923,32.781268012215
"320","ENCON-LA JOLLA SHORES/KA MANAGEMENT INC",10685,"2204 TORREY PINES RD","LA JOLLA",92037,"619-541-2950",NA,40,0,10,"LA JOLLA",5718.59815526,249104798.017,87358.6662548,-117.253802637955,32.8508319872532
"321","EXXON",11889,"9111 CAMPO RD","SPRING VALLEY",91977,NA,NA,26,0,NA,NA,NA,NA,NA,-117.00121775629,32.7510348315737
"322","EXXON #1017/NEW WEST PETROLEUM SD1",2733,"695 EL CAJON BLVD","EL CAJON",92020,"916-443-0890",NA,22,0,NA,NA,NA,NA,NA,-116.974116743659,32.7878842363833
"323","EXXON #1023/NEW WEST PETROLEUM SD1",3061,"6085 LAKE MURRAY BLVD","LA MESA",91942,"916-443-0890",NA,28,0,NA,NA,NA,NA,NA,-117.021542969909,32.7891467218248
"324","EXXON #1025/NEW WEST PETROLEUM SD1",5903,"3865 MISSION AVE","OCEANSIDE",92054,"916-443-0890",NA,34,0,NA,NA,NA,NA,NA,-117.328068911604,33.2266227233725
"325","EXXON #1026/NEW WEST PETROLEUM S2",7613,"8815 LAKE MURRAY BLVD","SAN DIEGO",92119,"916-443-0890",NA,28,0,20,"NAVAJO",9087.30876031,395843630.815,113466.64168,-117.009509993808,32.8032918623709
"326","EXXON #1028/NEW WEST PETROLEUM SD1",2015,"2405 UNIVERSITY AVE","SAN DIEGO",92104,"916-443-0890",NA,28,0,28,"GREATER NORTH PARK",2253.69411336,98171624.1502,50884.2009183,-117.138594876211,32.7482144614317
"327","EXXON #1029/NEW WEST PETROLEUM",4750,"3252 UNIVERSITY AVE","SAN DIEGO",92104,"916-443-0890",NA,28,0,28,"GREATER NORTH PARK",2253.69411336,98171624.1502,50884.2009183,-117.123668307493,32.7487491433398
"328","EXXON #1030/NEW WEST PETROLEUM S2",2134,"4357 EL CAJON BLVD","SAN DIEGO",92105,"916-443-0890",NA,22,0,56,"MID-CITY:CITY HEIGHTS",2935.50927873,127870892.422,53479.7643387,-117.100501500316,32.7546763582385
"329","EXXON #1031/NEW WEST PETROLEUMSD1",3057,"7737 BALBOA AVE","SAN DIEGO",92111,"916-443-0890",NA,28,0,50,"KEARNY MESA",4422.62522793,192654079.159,85207.8673967,-117.156460065088,32.8213633751157
"330","EXXON #1032/NEW WEST PETROLEUM SD2",3117,"3860 KEARNY MESA RD","SAN DIEGO",92111,"916-443-0890",NA,32,0,50,"KEARNY MESA",4422.62522793,192654079.159,85207.8673967,-117.152108903037,32.8139907403724
"331","EXXON #1033/NEW WEST PETROLEUM SD1",1984,"6949 LINDA VISTA RD","SAN DIEGO",92111,"916-443-0890",NA,32,0,12,"LINDA VISTA",2732.27635866,119018237.81,61745.5248429,-117.170020006132,32.7860758547143
"332","EXXON #1034/NEW WEST PETROLEUM SD2",3304,"1025 EUCLID AVE","SAN DIEGO",92114,"916-443-0890",NA,28,0,11,"ENCANTO NEIGHBORHOODS,SOUTHEASTERN",3810.65246109,165991994.197,65747.9107336,-117.084638788897,32.7164427651539
"333","EXXON #1037/NEW WEST PETROLEUM SD2",2725,"6953 NAVAJO RD","SAN DIEGO",92119,"916-443-0890",NA,20,0,20,"NAVAJO",9087.30876031,395843630.815,113466.64168,-117.045490677446,32.8037987818109
"334","EXXON #1038/NEW WEST PETROLEUM SD1",1987,"3918 GOVERNOR DR","SAN DIEGO",92122,"916-443-0890",NA,28,0,99,"UNIVERSITY",8676.16635746,377944307.934,116391.386355,-117.20424746515,32.8550304502096
"335","EXXON #1039/NEW WEST PETROLEUM SD1",5234,"12929 RANCHO PENASQUITOS BLVD","SAN DIEGO",92129,"916-443-0890",NA,42,0,29,"RANCHO PENASQUITOS",6456.34490358,281238503.825,93268.9199605,-117.107103889465,32.9522229506269
"336","EXXON #1042/NEW WEST PETROLEUM SD2",2113,"108 W SAN YSIDRO BLVD","SAN DIEGO",92173,"916-443-0890",NA,24,0,33,"SAN YSIDRO",1862.29010478,81121357.007,44119.18566,-117.044945733271,32.5520192083472
"337","EXXON #57/ WORLD OIL",3687,"4415 EL CAJON BLVD","SAN DIEGO",92115,"562-928-0100",NA,48,0,56,"MID-CITY:CITY HEIGHTS",2935.50927873,127870892.422,53479.7643387,-117.099452280615,32.7548203211901
"338","EXXON /APRO",12100,"235 S 47TH ST","SAN DIEGO",92102,NA,NA,36,0,11,"ENCANTO NEIGHBORHOODS,SOUTHEASTERN",3810.65246109,165991994.197,65747.9107336,-117.08901367267,32.7057197194264
"339","EXXON /APRO LLC #21",12097,"1202 S MAIN ST","FALLBROOK",92028,NA,NA,28,0,NA,NA,NA,NA,NA,-117.250930479462,33.3711651776909
"340","EXXON /APRO LLC #23",12099,"12462 POWY RD","POWY",92064,NA,NA,38,0,NA,NA,NA,NA,NA,-117.060540825149,32.9526351619452
"341","EXXON APRO #30 /UNITED OIL GAS",14520,"485 MELROSE DR","VISTA",92083,"310 323-3992","UNITED OIL COMPANY /JEFF APP",24,0,NA,NA,NA,NA,NA,-117.253932207689,33.2044376837765
"342","EXXON -APRO LLC #20",12096,"710 N SECOND ST","EL CAJON",92021,NA,NA,28,0,NA,NA,NA,NA,NA,-116.936143393948,32.8042559917627
"343","EXXON/APRO LLC #18",12094,"303 S ESCONDIDO","ESCONDIDO",92025,NA,NA,28,0,NA,NA,NA,NA,NA,-117.082995673911,33.1181263605328
"344","EXXON/APRO LLC #26/REGENT GAS",12102,"3010 MARKET ST","SAN DIEGO",92102,NA,NA,34,0,37,"SOUTHEASTERN SAN DIEGO,SOUTHEASTERN",2928.98056395,127586393.366,62401.1417428,-117.129845237398,32.7119992784244
"345","EXXON-APRO LLC",14275,"102 W MISSION AVE","ESCONDIDO",92025,"310 323-3992",NA,56,0,NA,NA,NA,NA,NA,-117.085829901733,33.1305598517744
"346","EXXON-E. VISTA #1NEW WEST PETROLEUM LLC",3536,"911 E VISTA WY","VISTA",92083,"916-443-0890",NA,28,0,NA,NA,NA,NA,NA,-117.231616193669,33.2107842334226
"347","EXXON-ENCINITAS-NEW WEST PETROLEUM LLC",4398,"325 ENCINITAS BLVD","ENCINITAS",92024,"916-443-0890",NA,28,0,NA,NA,NA,NA,NA,-117.284993352153,33.047890410411
"348","EXXON-IMPERIAL#1035/NEW WEST PETROLEUM",2279,"5109 IMPERIAL AVE","SAN DIEGO",92114,"916-443-0890",NA,28,0,11,"ENCANTO NEIGHBORHOODS,SOUTHEASTERN",3810.65246109,165991994.197,65747.9107336,-117.08459230458,32.7043228939391
"349","EXXON-MELROSE EXXON #1016",2178,"1498 MELROSE AVE","CHULA VISTA",91911,"916-443-0890","NEW WEST PETROLEUM",36,0,NA,NA,NA,NA,NA,-117.03953280444,32.6048315381041
"350","EXXONMOBIL OIL CORP #10682",2809,"1809 W WASHINGTON ST","SAN DIEGO",92103,"619-543-0633",NA,38,0,42,"UPTOWN",2646.93163314,115753599.083,61250.8361473,-117.181304160277,32.7428301809451
"351","EXXONMOBIL OIL CORP #10910",11487,"8380 CLAIREMONT MESA BLVD","SAN DIEGO",92111,"858-279-9343",NA,38,0,50,"KEARNY MESA",4422.62522793,192654079.159,85207.8673967,-117.143882411423,32.8332413777408
"352","EXXONMOBIL OIL CORP #11323",2555,"501 W FELICITA AVE","ESCONDIDO",92025,"760-747-1254",NA,24,0,NA,NA,NA,NA,NA,-117.075872664517,33.1029015396961
"353","EXXONMOBIL OIL CORP #11464",2883,"11898 RANCHO BERNARDO RD","SAN DIEGO",92128,"858-487-4496",NA,48,0,31,"RANCHO BERNARDO",6582.52496453,286763101.68,82435.4989635,-117.074840006748,33.0232635993334
"354","EXXONMOBIL OIL CORP #13203",4163,"13556 POWY RD","POWY",92064,"858-748-7489",NA,24,0,NA,NA,NA,NA,NA,-117.037022782649,32.9567486758419
"355","EXXONMOBIL OIL CORP #17966",11132,"2903 JAMACHA RD","EL CAJON",92019,"619 670 7814",NA,40,0,NA,NA,NA,NA,NA,-116.93883051417,32.7402624542
"356","EXXONMOBIL OIL CORP. #10215",14753,"10496 CLAIREMONT MESA BLVD","SAN DIEGO",92124,"303 986-8011",NA,42,0,47,"TIERRASANTA",7247.00443508,315690085.394,100491.414085,-117.103659103948,32.829797289205
"357","EXXONMOBIL OIL CORP. #10510",13986,"2780 GARNET AVE","SAN DIEGO",92109,"858 273-7624","ODISH, PAUL",18,0,27,"PACIFIC BEACH",2609.08329077,113649440.618,60036.3387182,-117.219444651756,32.8062205158266
"358","EXXONMOBIL OIL CORP. #10637",11414,"9790 MIRAMAR RD","SAN DIEGO",92126,"858-536-8862",NA,36,0,15,"MIRA MESA",10729.0159538,467349981.008,107975.395374,-117.118717925274,32.8942065932914
"359","EXXONMOBIL OIL CORP. #10988",14806,"6066 BALBOA AVE","SAN DIEGO",92111,"858 279-2062",NA,30,0,6,"CLAIREMONT MESA",8539.17388935,371970138.828,91823.2606488,-117.176558818566,32.820583411236
"360","EXXONMOBIL OIL CORP. #11123",2077,"2004 E VALLEY PKWY","ESCONDIDO",92027,"760-745-4488",NA,24,0,NA,NA,NA,NA,NA,-117.051696885744,33.1380103590161
"361","EXXONMOBIL OIL CORP. #11268",3199,"3861 GOVERNOR DR","SAN DIEGO",92122,"858-450-9474",NA,36,0,99,"UNIVERSITY",8676.16635746,377944307.934,116391.386355,-117.204981213521,32.8542280367198
"362","EXXONMOBIL OIL CORP. #11462",2882,"9750 MAGNOLIA AVE","SANTEE",92071,"619-449-4224",NA,32,0,NA,NA,NA,NA,NA,-116.971510524038,32.8548221913018
"363","EXXONMOBIL OIL CORP. #11686",2811,"3233 LA JOLLA VILLAGE DR","LA JOLLA",92037,"453-8153",NA,50,0,99,"UNIVERSITY",8676.16635746,377944307.934,116391.386355,-117.233327410141,32.8712358664514
"364","EXXONMOBIL OIL CORP. #12099",11398,"1407 MISSION AVE","OCEANSIDE",92054,"760-439-3555",NA,32,0,NA,NA,NA,NA,NA,-117.369868341983,33.2009703419228
"365","EXXONMOBIL OIL CORP. #12268",2844,"5900 SEVERIN DR","LA MESA",91942,"619-460-3145",NA,24,0,NA,NA,NA,NA,NA,-116.99893505051,32.786109732326
"366","EXXONMOBIL OIL CORP. #12625",2241,"902 3RD AVE","CHULA VISTA",91911,"585-9333",NA,24,0,NA,NA,NA,NA,NA,-117.072048297476,32.6202202383522
"367","EXXONMOBIL OIL CORP. #12721",2014,"5494 MISSION CENTER RD","SAN DIEGO",92108,"619-297-1534",NA,24,0,19,"MISSION VALLEY",3215.64828623,140082535.581,89502.8557087,-117.154479586887,32.7740230310378
"368","EXXONMOBIL OIL CORP. #12743",3544,"3724 DEL SOL BLVD","SAN DIEGO",92154,"690-1155",NA,24,0,25,"OTAY MESA-NESTOR",5367.82083453,233822275.552,95210.7085828,-117.054529470024,32.573649249873
"369","EXXONMOBIL OIL CORP. #13069",4123,"3927 EL CAJON BLVD","SAN DIEGO",92105,"619-280-5089",NA,48,0,56,"MID-CITY:CITY HEIGHTS",2935.50927873,127870892.422,53479.7643387,-117.109866599625,32.754749204257
"370","EXXONMOBIL OIL CORP. #15979",5013,"12849 RANCHO PENASQUITOS BLVD","SAN DIEGO",92129,"619-541-2950",NA,52,0,29,"RANCHO PENASQUITOS",6456.34490358,281238503.825,93268.9199605,-117.106815467077,32.9502247320137
"371","EXXONMOBIL OIL CORP. #17855",4296,"120 W SAN YSIDRO BLVD","SAN YSIDRO",92173,"619-428-5977",NA,36,0,33,"SAN YSIDRO",1862.29010478,81121357.007,44119.18566,-117.045526301965,32.552344231189
"372","EXXONMOBIL OIL CORP. #17970",11131,"10555 SCRIPPS POWYY PKWY","SAN DIEGO",92131,"858-566-9629",NA,38,0,9,"MIRAMAR RANCH NORTH",1894.01237496,82503119.1815,50714.3797568,-117.100258226744,32.9369147175938
"373","E-Z GAS INC",5117,"1158 E WASHINGTON AVE","ESCONDIDO",92025,"744-7788",NA,24,0,NA,NA,NA,NA,NA,-117.068664676448,33.1330817550726
"374","EZ-HAUL TRUCK RENTAL",5585,"5624 KEARNY VILLA RD","SAN DIEGO",92123,"858-277-1440",NA,2,0,50,"KEARNY MESA",4422.62522793,192654079.159,85207.8673967,-117.136221644665,32.8372417467174
"375","FALLBROOK OIL CO.",3574,"1208 S MAIN ST","FALLBROOK",92028,"760-728-7703",NA,15,0,NA,NA,NA,NA,NA,-117.250885619868,33.3708230333983
"376","FAST FUEL CAR CARE CENTER",2341,"4505 CLAIREMONT MESA BLVD","SAN DIEGO",92117,"619-571-9090",NA,18,0,6,"CLAIREMONT MESA",8539.17388935,371970138.828,91823.2606488,-117.194357230079,32.8341894953273
"377","FILL N GO",4181,"404 TELEGRAPH CANYON RD","CHULA VISTA",91911,"619 827 8222",NA,28,0,NA,NA,NA,NA,NA,-117.045875213224,32.6283235188601
"378","FILL N GO /CALIFORNIA FINEST OIL",14754,"10821 TIERRASANTA BLVD","SAN DIEGO",92124,"858 279-0690",NA,24,0,47,"TIERRASANTA",7247.00443508,315690085.394,100491.414085,-117.098403129742,32.8213440710603
"379","GAS DEPOT",11456,"490 N 2ND ST","EL CAJON",92021,"619-447-5916",NA,18,0,NA,NA,NA,NA,NA,-116.936104977154,32.7999517683038
"380","GAS DEPOT AUTO CARE",11997,"1619 G ST","SAN DIEGO",92101,"619 235 6742",NA,18,0,4,"DOWNTOWN",1516.21502084,66053186.5307,55781.5643997,-117.148842079352,32.7123903345303
"381","GAS DEPOT STATION",11582,"199 BRDWY","CHULA VISTA",91910,"619-427-8808",NA,24,0,NA,NA,NA,NA,NA,-117.093376266849,32.6418362336542
"382","GASCO",11314,"899 3RD AVE","CHULA VISTA",91911,"619 422 9286",NA,44,0,NA,NA,NA,NA,NA,-117.071566884154,32.6210112472028
"383","GIBBS FLYING SERVICE-STATIONARY METERS",13487,"8906 AERO DR","SAN DIEGO",92123,NA,NA,1,0,50,"KEARNY MESA",4422.62522793,192654079.159,85207.8673967,-117.135902090557,32.8090501393023
"384","GLACIER WATER",16104,"907 S COAST HIGHWY","OCEANSIDE",92054,NA,NA,1,0,NA,NA,NA,NA,NA,-117.372620125777,33.1872386513566
"385","GOLDEN STATE GASOLINE INC",11387,"2404 EL CAJON BLVD","SAN DIEGO",92104,"619 593 6652",NA,24,0,28,"GREATER NORTH PARK",2253.69411336,98171624.1502,50884.2009183,-117.1385273132,32.7557056858296
"386","GOLDEN STATE GASOLINE, INC.",4952,"1943 S COAST HWY","OCEANSIDE",92054,"619-593-6652",NA,24,0,NA,NA,NA,NA,NA,-117.359993597591,33.1721963541256
"387","GOLDEN STATE GASOLINE, INC.",2649,"181 N 2ND ST","EL CAJON",92021,"619-593-6652",NA,36,0,NA,NA,NA,NA,NA,-116.935316834531,32.7961110335683
"388","GOLDEN STATE GASOLINE, INC.",2521,"225 W WASHINGTON","ESCONDIDO",92025,"619-593-6652",NA,18,0,NA,NA,NA,NA,NA,-117.086218657222,33.1259370711273
"389","GREYHOUND LINES INC./TAX DEPARTMENT",8118,"120 W BRDWY","SAN DIEGO",92101,"619-239-1289",NA,1,0,4,"DOWNTOWN",1516.21502084,66053186.5307,55781.5643997,-117.164423093078,32.7161591127361
"390","HARBOR ISLAND FUEL DOCK",8243,"2040 HARBOR ISLAND DR","SAN DIEGO",92101,"619-291-6443",NA,9,0,NA,NA,NA,NA,NA,-117.211116716389,32.7259165929405
"391","HAWTHORNE  LIFT SYSTEMS",12062,"10930 WILLOW CT","SAN DIEGO",92127,"858-674-7000",NA,2,0,NA,NA,NA,NA,NA,-117.099105681933,33.0139954764846
"392","HAWTHORNE POWER SYSTEMS",0,"8050 OTHELLO","SAN DIEGO",92111,NA,NA,1,0,50,"KEARNY MESA",4422.62522793,192654079.159,85207.8673967,-117.15083226754,32.8180544765275
"393","HAWTHORNE RENT-IT SERVICE",2737,"12329 MAPLEVIEW","LAKESIDE",92040,"561-8700",NA,3,0,NA,NA,NA,NA,NA,-116.925327185864,32.8617455960347
"394","HAWTHORNE RENT-IT SERVICE",2738,"7625 CARROLL RD","SAN DIEGO",92121,"566-9966",NA,2,0,15,"MIRA MESA",10729.0159538,467349981.008,107975.395374,-117.158225810222,32.8841371662882
"395","HAWTHORNE RENT-IT SERVICE",2739,"530 ANDREASEN DR","ESCONDIDO",92029,"745-8775",NA,1,0,NA,NA,NA,NA,NA,-117.107461888932,33.1216022146302
"396","HAWTHORNE RENT-IT SERVICE",2740,"2065 CAM VIDA ROBLE","CARLSBAD",92009,"431-7000",NA,1,0,NA,NA,NA,NA,NA,-117.276224181136,33.1178429887729
"397","HAZARD CENTER AUTOMART",14407,"7698 FRIARS RD","SAN DIEGO CA",92108,"619 296-2566",NA,24,0,19,"MISSION VALLEY",3215.64828623,140082535.581,89502.8557087,-117.158003433662,32.7728029231592
"398","HERTZ EQUIPMENT RENTAL",6890,"8014 MIRAMAR RD","SAN DIEGO",92126,"566-5500",NA,1,0,15,"MIRA MESA",10729.0159538,467349981.008,107975.395374,-117.146983078338,32.8884859940446
"399","HERTZ EQUIPMENT RENTAL",0,"415 W 30TH ST","NATIONAL CITY",91950,NA,NA,2,0,NA,NA,NA,NA,NA,-117.104710583059,32.6562870162411
"400","HIGH SEAS FUEL DOCK",10896,"2540 SHELTER ISLAND DR","SAN DIEGO",92106,"619-523-2980",NA,20,0,NA,NA,NA,NA,NA,-117.226510171662,32.7208053731616
"401","HIGHLAND SERVICE STATION",15311,"1803 HIGHLAND AVE","NATIONAL CITY",91950,"619 454-4488",NA,24,0,NA,NA,NA,NA,NA,-117.094874027166,32.6693315222957
"402","HOMELAND PETROLEUM-MIRA MESA",4216,"8340 MIRA MESA BLVD","SAN DIEGO",92126,"566-8275",NA,38,0,15,"MIRA MESA",10729.0159538,467349981.008,107975.395374,-117.144264245294,32.9132859328486
"403","J ST LIQUOR",2784,"701 BRDWY","CHULA VISTA",91910,"619-426-5152",NA,8,0,NA,NA,NA,NA,NA,-117.086337614633,32.6239341531876
"404","J.R. GAS",15014,"505 S 30TH ST","SAN DIEGO",92113,"619 239-4550",NA,24,0,37,"SOUTHEASTERN SAN DIEGO,SOUTHEASTERN",2928.98056395,127586393.366,62401.1417428,-117.129212671915,32.7008943290177
"405","KELLY & ASSOCIATES",1748,"3757 BANCROFT DR","SPRING VALLEY",91977,"462-7772",NA,1,0,NA,NA,NA,NA,NA,-117.001541112162,32.7473808171886
"406","KWIK STOP",14332,"1140 E MISSION AVE","ESCONDIDO",92025,"760 739-8785","RAHIB, NABEEL",18,0,NA,NA,NA,NA,NA,-117.071000057182,33.1361919831585
"407","LA CIMA OIL #256898",4151,"5040 EL CAJON BLVD","SAN DIEGO",92115,"265-2379",NA,32,0,58,"MID-CITY:KENSINGTON-TALMADGE",1156.7904467,50389965.153,32385.5998705,-117.08599276789,32.7572175524432
"408","LA JOLLA 76",3426,"801 PEARL ST","LA JOLLA",92037,"454-7600",NA,28,0,10,"LA JOLLA",5718.59815526,249104798.017,87358.6662548,-117.274481105355,32.8397518637467
"409","LAKE MORENA COUNTRY MARKET",13934,"29801 OAK DR","CAMPO",91906,"619-478-9067",NA,12,0,NA,NA,NA,NA,NA,-116.505139567373,32.6792326454544
"410","MARKET ST REAL ESTATE HOLDINGS, LLC",15819,"1606 MARKET ST STE 915","SAN DIEGO",92101,NA,NA,24,0,4,"DOWNTOWN",1516.21502084,66053186.5307,55781.5643997,-117.149003738637,32.7118243360293
"411","MARVIN K. BROWN AUTO CENTER",4166,"1441 CAM DEL RIO S","SAN DIEGO",92108,"619-291-2040",NA,1,0,19,"MISSION VALLEY",3215.64828623,140082535.581,89502.8557087,-117.148932492942,32.765567214679
"412","MEGA-FUEL & SUBWY",14366,"7153 CLAIREMONT MESA BLVD","SAN DIEGO",92111,"858 565-7133",NA,40,0,50,"KEARNY MESA",4422.62522793,192654079.159,85207.8673967,-117.163074950635,32.8322351872374
"413","MOBIL FAIRBANKS RANCH MOBIL",11082,"16095 SAN DIEGUITO RD","RANCHO SANTA",92067,"619-759-9184",NA,40,0,NA,NA,NA,NA,NA,-117.196997894025,32.9914272352432
"414","MOBIL-BODY BEAUTIFUL CAR WASH INC",3642,"2045 PACIFIC HIGHWY","SAN DIEGO",92101,"619-563-5566",NA,40,0,4,"DOWNTOWN",1516.21502084,66053186.5307,55781.5643997,-117.171442591936,32.7251831604085
"415","MOBIL-BODY BEAUTIFUL CAR WASH INC",6718,"4282 CAM DEL RIO N","SAN DIEGO",92108,"619-563-5566",NA,40,0,20,"NAVAJO",9087.30876031,395843630.815,113466.64168,-117.102365599454,32.7802620153527
"416","MOBIL-TONY'S",4168,"801 S SANTA FE AVE","VISTA",92083,"760-726-4990",NA,18,0,NA,NA,NA,NA,NA,-117.235743649789,33.1941754792968
"417","MOHSEN OIL INC",12638,"628 S COAST HIGHWY","OCEANSIDE",92054,"760 945-7222",NA,42,0,NA,NA,NA,NA,NA,-117.373280679341,33.1889171493603
"418","NATION'S RENTS",11599,"3860 SHERMAN ST","SAN DIEGO",92110,"619-298-9846",NA,4,0,14,"MIDWAY-PACIFIC HIGHWAY",918.44193686,39555950.1191,48087.3721621,-117.207163462811,32.7571193926422
"419","NEFF RENTAL",5006,"955 W MISSION AVE","ESCONDIDO",92025,"760-747-6300",NA,2,0,NA,NA,NA,NA,NA,-117.09892010189,33.1254298610175
"420","NORTH PARK SERVICE CENTER",2252,"3001 EL CAJON BLVD","SAN DIEGO",92104,"619 284-3426",NA,24,0,28,"GREATER NORTH PARK",2253.69411336,98171624.1502,50884.2009183,-117.129958612408,32.7549452878127
"421","O'BRIEN STATION",2002,"310 ENCINITAS BLVD","ENCINITAS",92024,"760-753-1000",NA,40,0,NA,NA,NA,NA,NA,-117.284964726885,33.0486461370511
"422","OLYMPIC GASOLINE",11609,"1300 IMPERIAL BEACH BLVD","IMPERIAL BEAC",91932,"619-423-7770",NA,24,0,NA,NA,NA,NA,NA,-117.105397158483,32.576828571628
"423","ONE STOP AUTO TECH.",12442,"9605 CARLTON HILLS BLVD","SANTEE",92071,"619-448-6116",NA,8,0,NA,NA,NA,NA,NA,-116.998428655092,32.8522993830493
"424","P.B. SPIRIT GAS",14408,"1885 GARNET AVE","SAN DIEGO",92109,"619 917-2821",NA,24,0,27,"PACIFIC BEACH",2609.08329077,113649440.618,60036.3387182,-117.235611375056,32.800655219754
"425","PACIFIC BEACH FUELS",2979,"4404 INGRAHAM ST","SAN DIEGO",92109,"858-274-6834",NA,24,0,27,"PACIFIC BEACH",2609.08329077,113649440.618,60036.3387182,-117.240725075729,32.7981457440459
"426","PALA VISTA GAS STATION/KEY LEE",2798,"29200 VALLEY CENTER RD","VALLEY CENTER",92082,"760-749-1104",NA,24,0,NA,NA,NA,NA,NA,-117.024530635698,33.2315300325199
"427","PKWY EXPRESS GAS/WESTINVEST",2074,"1296 W VALLEY PKWY","ESCONDIDO",92029,"619-297-5553",NA,37,0,NA,NA,NA,NA,NA,-117.101424682595,33.1144143452686
"428","PEARSON FORD FUELS",13880,"4067 EL CAJON BLVD","SAN DIEGO",92105,NA,"LISA PIETILA/BUSINESS MGR",38,0,56,"MID-CITY:CITY HEIGHTS",2935.50927873,127870892.422,53479.7643387,-117.107501145409,32.7543355250943
"429","PENSKE TRUCK LEASING",14001,"8750 PRODUCTION AVE","SAN DIEGO",92121,"610 775-6471",NA,2,0,15,"MIRA MESA",10729.0159538,467349981.008,107975.395374,-117.166199540979,32.8843998766856
"430","PENSKE TRUCK LEASING CO.",3588,"4285 CAM DEL RIO S","SAN DIEGO",92108,NA,NA,3,0,19,"MISSION VALLEY",3215.64828623,140082535.581,89502.8557087,-117.101893366679,32.7776913010197
"431","PETROMERICA",6322,"1548 F ST","SAN DIEGO",92101,"619-235-8751",NA,24,0,4,"DOWNTOWN",1516.21502084,66053186.5307,55781.5643997,-117.149812637512,32.7139928670241
"432","PLAVAN COMMERCIAL FUELING",10996,"321 QUINCE ST S","ESCONDIDO",92025,"858 974-7666",NA,23,0,NA,NA,NA,NA,NA,-117.087090012899,33.1159278410762
"433","PLAVAN COMMERCIAL FUELING",13205,"9690 BLACK MTN RD","SAN DIEGO",92126,NA,NA,3,0,15,"MIRA MESA",10729.0159538,467349981.008,107975.395374,-117.123218782057,32.8988194909276
"434","POINT LOMA GAS AND MARKET",14479,"4792 POINT LOMA AVE","SAN DIEGO",92107,"619 222-1500","GHALIB MCKANY",20,0,23,"OCEAN BEACH",641.45056657,27941631.7469,37944.3610656,-117.254472430404,32.7364849008477
"435","QUICK TRIP FUEL MARKET",14770,"596 N MOLLISON AVE","EL CAJON",92021,"619-441-3340",NA,56,0,NA,NA,NA,NA,NA,-116.951462731333,32.8024991858564
"436","QUIK KORNER DELI",13412,"2015 E VALLEY PKWY","ESCONDIDO",92027,NA,NA,24,0,NA,NA,NA,NA,NA,-117.051214051504,33.1373672676149
"437","QWIK KORNER GAS #3",13389,"9663 CAMPO RD","SPRING VALLEY",91977,NA,NA,24,0,NA,NA,NA,NA,NA,-116.988196097698,32.747698799793
"438","RAM 99*",4624,"407 EL CAJON BLVD","EL CAJON",92020,"619447-6812",NA,16,0,NA,NA,NA,NA,NA,-116.971175268093,32.7910635809079
"439","RAMCO PETROLEUM #3",15584,"447 TECATE RD","TECATE",91980,"619 478-9343",NA,30,0,NA,NA,NA,NA,NA,-116.628063963859,32.5787931670019
"440","RANCHO BERNARDO SHELL",15837,"12507 RANCHO BERNARDO RD","SAN DIEGO",92128,"858-487-2505",NA,28,0,31,"RANCHO BERNARDO",6582.52496453,286763101.68,82435.4989635,-117.060386974995,33.0183393163418
"441","REBEL RENTS, INC.",3794,"142 W MISSION AVE","ESCONDIDO",92025,NA,NA,2,0,NA,NA,NA,NA,NA,-117.086529238864,33.1305901751207
"442","REVCO GAS",7047,"303 JAMACHA RD","EL CAJON",92019,"619-579-2473","REVA ENTERPRISES, INC.",28,0,NA,NA,NA,NA,NA,-116.933108107743,32.7924430727013
"443","ROUTE 66",15628,"3535 INDIA ST","SAN DIEGO",92103,"619-296-4673",NA,24,0,42,"UPTOWN",2646.93163314,115753599.083,61250.8361473,-117.177788394568,32.7397322892809
"444","ROUTE 66",15050,"6936 LINDA VISTA RD","SAN DIEGO",92111,"858-505-0081","GREG LAMB",27,0,12,"LINDA VISTA",2732.27635866,119018237.81,61745.5248429,-117.170686505706,32.7863357870893
"445","RYDER TRUCK RENTAL",5579,"5345 OVERLAND AVE","SAN DIEGO",92123,"565-8517",NA,3,0,50,"KEARNY MESA",4422.62522793,192654079.159,85207.8673967,-117.129962280538,32.8324937912056
"446","SHELL",14742,"2485 CORONADO AVE","SAN DIEGO",92154,NA,NA,24,0,25,"OTAY MESA-NESTOR",5367.82083453,233822275.552,95210.7085828,-117.080088184772,32.5760559446241
"447","SHELL",10829,"4925 SPRING ST","LA MESA",91941,"519-662-2727",NA,32,0,NA,NA,NA,NA,NA,-117.021995560404,32.7685790197157
"448","SHELL",13387,"2075 BALBOA AVE","SAN DIEGO",92109,"858 272-2844",NA,36,0,27,"PACIFIC BEACH",2609.08329077,113649440.618,60036.3387182,-117.231725505973,32.8000598467364
"449","SHELL - EL NORTE SHELL GAS & CAR WASH",14568,"615 W EL NORTE PKWY","ESCONDIDO",92026,"760-489-2665",NA,52,0,NA,NA,NA,NA,NA,-117.101689443451,33.1453685315248
"450","SHELL - OTAY MESA SHELL",14216,"2310 ROLL DR","SAN DIEGO",92154,"619-661-6098","SHAHIN EDALATDJU",36,0,26,"OTAY MESA",9316.12916262,405811314.107,105906.774574,-116.938165835206,32.5558358269798
"451","SHELL- LAKE MURRAY",13411,"5302 LAKE MURRAY BLVD","LA MESA",91942,"619-462-6722","MILLENNIUM PACIFIC DEVELOPME",28,0,NA,NA,NA,NA,NA,-117.045362668293,32.7755753356674
"452","SHELL -MIDWY",14671,"3425 MIDWY DR","SAN DIEGO",92110,"619 758-1412",NA,40,0,14,"MIDWAY-PACIFIC HIGHWAY",918.44193686,39555950.1191,48087.3721621,-117.212785989949,32.750283702897
"453","SHELL OF POWY",13781,"13341 POWY RD","POWY",92064,"858-748-6504","GABRIEL",28,0,NA,NA,NA,NA,NA,-117.041490126469,32.95613405204
"454","SHELL OIL PRODUCTS US #120520",13043,"1145 S 28TH ST","SAN DIEGO",92113,"602.468.6944",NA,28,0,2,"BARRIO LOGAN",551.69622779,24031887.8004,41958.6535406,-117.133510406762,32.6942792053003
"455","SHELL OIL PRODUCTS US #120561",9710,"12174 CARMEL MTN RD","SAN DIEGO",92128,"602-468-6944",NA,40,0,3,"CARMEL MOUNTAIN RANCH",1522.7694068,66331835.3361,36137.232132,-117.07598884414,32.9853169078164
"456","SHELL OIL PRODUCTS US #120574",7944,"12507 RANCHO BERNARDO RD","SAN DIEGO",92128,"858-487-2505",NA,28,0,31,"RANCHO BERNARDO",6582.52496453,286763101.68,82435.4989635,-117.060386974995,33.0183393163418
"457","SHELL OIL PRODUCTS US #120588",3807,"1295 3RD AVE","CHULA VISTA",91911,"602-468-6944",NA,28,0,NA,NA,NA,NA,NA,-117.066189008954,32.6071798574657
"458","SHELL OIL PRODUCTS US #120878",4329,"210 S MELROSE AVE","VISTA",92081,"602-468-6944",NA,28,0,NA,NA,NA,NA,NA,-117.25310569662,33.1934954918558
"459","SHELL OIL PRODUCTS US #120881",6255,"2110 W MISSION RD","ESCONDIDO",92029,"760-737-8586",NA,28,0,NA,NA,NA,NA,NA,-117.122729073869,33.1310296928113
"460","SHELL OIL PRODUCTS US #120987",7799,"2435 OTAY CENTER DR","SAN DIEGO",92154,"602-468-6944",NA,28,0,26,"OTAY MESA",9316.12916262,405811314.107,105906.774574,-116.942154630066,32.5546361139138
"461","SHELL OIL PRODUCTS US #121073",2066,"3015 DEL MAR HEIGHTS RD","SAN DIEGO",92130,"602-468-6944",NA,40,0,21,"CARMEL VALLEY",4525.42412552,197127540.728,77310.6067786,-117.241033843157,32.9506439670161
"462","SHELL OIL PRODUCTS US #121091",2173,"314 E SAN YSIDRO BLVD","SAN DIEGO",92173,"602-468-6944",NA,28,0,33,"SAN YSIDRO",1862.29010478,81121357.007,44119.18566,-117.039662274766,32.5512578634592
"463","SHELL OIL PRODUCTS US #121180",3127,"3711 W CAM DEL RIO","SAN DIEGO",92110,"602-468-6944",NA,29,0,14,"MIDWAY-PACIFIC HIGHWAY",918.44193686,39555950.1191,48087.3721621,-117.204486375769,32.7542620904316
"464","SHELL OIL PRODUCTS US #121353",4175,"515 MAGNOLIA AVE","EL CAJON",92020,"602-468-6944",NA,28,0,NA,NA,NA,NA,NA,-116.961999619653,32.8011913886237
"465","SHELL OIL PRODUCTS US #121355",15239,"5151 N 70TH ST","LA MESA",91941,"619-463-3000",NA,27,0,NA,NA,NA,NA,NA,-117.046407277313,32.7727259731796
"466","SHELL OIL PRODUCTS US #121435",3065,"601 N 2ND ST","EL CAJON",92021,"602-468-6944",NA,48,0,NA,NA,NA,NA,NA,-116.935263447245,32.8024228389555
"467","SHELL OIL PRODUCTS US #121448",1925,"6125 BALBOA AVE","SAN DIEGO",92111,"602-468-6944",NA,28,0,6,"CLAIREMONT MESA",8539.17388935,371970138.828,91823.2606488,-117.175761903827,32.8198655113083
"468","SHELL OIL PRODUCTS US #121481",15815,"665 PALOMAR","CARLSBAD",92009,"760 438-3656",NA,30,0,NA,NA,NA,NA,NA,-117.324474715126,33.1217920493612
"469","SHELL OIL PRODUCTS US #121520",7279,"7180 BRDWY","LEMON GROVE",91945,"602-468-6944",NA,42,0,NA,NA,NA,NA,NA,-117.043253461012,32.7429515948052
"470","SHELL OIL PRODUCTS US #121557",4934,"7785 CLAIREMONT MESA BLVD","SAN DIEGO",92111,"602-468-6944",NA,28,0,50,"KEARNY MESA",4422.62522793,192654079.159,85207.8673967,-117.153726517507,32.8323774740762
"471","SHELL OIL PRODUCTS US #121647",10637,"902 BRDWY","CHULA VISTA",91911,"602-468-6944",NA,34,0,NA,NA,NA,NA,NA,-117.084341530528,32.6168620890978
"472","SHELL OIL PRODUCTS US #121655",3063,"9090 DALLAS ST","LA MESA",91942,NA,"KIRK BROTEN 760-533-9258",28,0,NA,NA,NA,NA,NA,-117.002598820796,32.7927738213063
"473","SHELL OIL PRODUCTS US #121801",3218,"5465 MISSION CENTER RD","SAN DIEGO",92108,"602-468-6944",NA,32,0,19,"MISSION VALLEY",3215.64828623,140082535.581,89502.8557087,-117.153527496517,32.7739764088909
"474","SHELL OIL PRODUCTS US #135133",2558,"1145 CARLSBAD VILLAGE DR","CARLSBAD",92008,"760 729-1372",NA,24,0,NA,NA,NA,NA,NA,-117.341263989721,33.1635725443411
"475","SHELL OIL PRODUCTS US #135134",3829,"2590 EL CAM REAL","CARLSBAD",92008,"434-4189",NA,24,0,NA,NA,NA,NA,NA,-117.326209301139,33.1781221178048
"476","SHELL OIL PRODUCTS US #135250",6183,"2411 JAMACHA","EL CAJON",92019,"602-468-6944","ARS WEST LLC-KIRK BROTEN",30,0,NA,NA,NA,NA,NA,-116.927196193475,32.7457636678851
"477","SHELL OIL PRODUCTS US #135268",2848,"510 SANTA FE DR","ENCINITAS",92024,"471-6074",NA,36,0,NA,NA,NA,NA,NA,-117.280185998651,33.0366141503618
"478","SHELL OIL PRODUCTS US #135269",12381,"1355 ENCINITAS BLVD","ENCINITAS",92024,"760-753-7500",NA,32,0,NA,NA,NA,NA,NA,-117.260041388477,33.0455857286373
"479","SHELL OIL PRODUCTS US #135275",1438,"105 E VIA RANCHO PKWY","ESCONDIDO",92025,"602-468-6944",NA,36,0,NA,NA,NA,NA,NA,-117.067057508068,33.0682012142442
"480","SHELL OIL PRODUCTS US #135278",5460,"780 W EL NORTE PKWY","ESCONDIDO",92026,"602-468-6944",NA,30,0,NA,NA,NA,NA,NA,-117.103223159412,33.1472172130368
"481","SHELL OIL PRODUCTS US #135287",4048,"1205 S MAIN ST","FALLBROOK",92028,"602-468-6944",NA,34,0,NA,NA,NA,NA,NA,-117.25161385029,33.3707714603048
"482","SHELL OIL PRODUCTS US #135423",1909,"3810 MASSACHUSETTS AVE","LA MESA",91941,"602-468-6944",NA,24,0,NA,NA,NA,NA,NA,-117.043141960821,32.7466425173318
"483","SHELL OIL PRODUCTS US #135437",2121,"865 ORPHEUS","ENCINITAS",92024,"753-0077",NA,24,0,NA,NA,NA,NA,NA,-117.293241536606,33.0646060583737
"484","SHELL OIL PRODUCTS US #135898",15996,"4794 VOLTAIRE ST","SAN DIEGO",92107,"619-224-1900",NA,24,0,23,"OCEAN BEACH",641.45056657,27941631.7469,37944.3610656,-117.24275797324,32.7499918967014
"485","SHELL OIL PRODUCTS US #135904",2123,"2484 F ST","SAN DIEGO",92102,"271-9499",NA,24,0,8,"GREATER GOLDEN HILL",745.51826715,32475130.7948,29195.1594048,-117.140583054605,32.71403924679
"486","SHELL OIL PRODUCTS US #135913",4202,"2290 MOORE ST","SAN DIEGO",92110,"602-468-6944",NA,24,0,24,"OLD TOWN SAN DIEGO",274.8004298,11969776.3457,17987.2802808,-117.192783898744,32.7482396778771
"487","SHELL OIL PRODUCTS US #135918",2920,"330 WASHINGTON ST","SAN DIEGO",92103,"602-468-6944",NA,24,0,42,"UPTOWN",2646.93163314,115753599.083,61250.8361473,-117.161948609547,32.7502263763497
"488","SHELL OIL PRODUCTS US #135923",2542,"1330 MORENA BLVD","SAN DIEGO",92110,"602-468-6944",NA,30,0,12,"LINDA VISTA",2732.27635866,119018237.81,61745.5248429,-117.202701821535,32.7721162134114
"489","SHELL OIL PRODUCTS US #135927",3118,"7647 BALBOA AVE","SAN DIEGO",92111,"602-468-6944",NA,30,0,50,"KEARNY MESA",4422.62522793,192654079.159,85207.8673967,-117.159425550332,32.8213690564412
"490","SHELL OIL PRODUCTS US #135929",4018,"2521 PACIFIC HIGHWY","SAN DIEGO",92101,"602-468-6944",NA,18,4,14,"MIDWAY-PACIFIC HIGHWAY",918.44193686,39555950.1191,48087.3721621,-117.17353590521,32.7299251874174
"491","SHELL OIL PRODUCTS US #135932",2125,"5401 UNIVERSITY AVE","SAN DIEGO",92105,"602-468-6944",NA,26,0,57,"MID-CITY:EASTERN AREA",3115.1057929,135693919.385,61687.0047213,-117.079119218869,32.7483501929474
"492","SHELL OIL PRODUCTS US #135933",2840,"9840 MIRAMAR RD","SAN DIEGO",92126,"602-468-6944",NA,48,0,15,"MIRA MESA",10729.0159538,467349981.008,107975.395374,-117.117788065705,32.8940664107063
"493","SHELL OIL PRODUCTS US #135934",4044,"8345 MIRA MESA BLVD","SAN DIEGO",92126,"602-468-6944",NA,44,0,15,"MIRA MESA",10729.0159538,467349981.008,107975.395374,-117.144547393852,32.9122909858098
"494","SHELL OIL PRODUCTS US #135935",2142,"3060 CARMEL VALLEY RD","SAN DIEGO",92130,"602-468-6944",NA,30,0,21,"CARMEL VALLEY",4525.42412552,197127540.728,77310.6067786,-117.240016880948,32.9335782509048
"495","SHELL OIL PRODUCTS US #135938",337,"9490 MIRA MESA BLVD","SAN DIEGO",92126,"602-468-6944",NA,48,0,15,"MIRA MESA",10729.0159538,467349981.008,107975.395374,-117.121189727637,32.9176366840146
"496","SHELL OIL PRODUCTS US #135939",458,"11815 CARMEL MTN RD","SAN DIEGO",92128,"602-468-6944",NA,36,0,3,"CARMEL MOUNTAIN RANCH",1522.7694068,66331835.3361,36137.232132,-117.077426638459,32.9804270329714
"497","SHELL OIL PRODUCTS US #136241",1960,"145 N EMERALD DR","VISTA",92083,"602-468-6944",NA,36,0,NA,NA,NA,NA,NA,-117.279135901755,33.1895387641061
"498","SHELL OIL PRODUCTS US#121634",10674,"8920 MIRAMAR","SAN DIEGO",92126,"619 521-3200",NA,42,0,15,"MIRA MESA",10729.0159538,467349981.008,107975.395374,-117.133019939596,32.8940633180701
"499","SHELL -VIPER WY SHELL",14491,"6695 MIRA MESA BLVD","SAN DIEGO",92121,"510-293-9150","SAROJ GOYAL",40,0,15,"MIRA MESA",10729.0159538,467349981.008,107975.395374,-117.174636612876,32.9059616801562
"500","SHELL-52 & CONVOY",9953,"7740 COPLEY PARK PL","SAN DIEGO",92111,"619-234-7989",NA,52,0,50,"KEARNY MESA",4422.62522793,192654079.159,85207.8673967,-117.152800347415,32.8366654178624
"501","SHELL-ACACIA GASOLINE & CAR WASH OF C.V",11148,"3861 VALLLEY CENTRE DR","SAN DIEGO",92130,"858-792-9009",NA,52,0,21,"CARMEL VALLEY",4525.42412552,197127540.728,77310.6067786,-117.230990991062,32.9372981787819
"502","SHELL-ALPINE SHELL",11620,"2235 ALPINE BLVD","ALPINE",91901,"619-778-8686",NA,26,0,NA,NA,NA,NA,NA,-116.765481551591,32.8351885411979
"503","SHELL-OLD GROVE SHELL",13753,"185 OLD GROVE RD, STE A","OCEANSIDE",92057,"760-967-7344","STEVE THOMAS OR JOE/STORE MG",40,0,NA,NA,NA,NA,NA,-117.308054311966,33.231975236406
"504","SHELL-WRIGHT FUEL STOP/SHELL",12226,"1494 CARRIZO GORGE RD","JACUMBA",91934,"619 766 4448",NA,26,0,NA,NA,NA,NA,NA,-116.166312790831,32.6345967812919
"505","SHUSTER OIL & CHEMICAL COMPANY, INC",3521,"635 W 3RD AVE","ESCONDIDO",92025,"760-745-0591",NA,8,0,NA,NA,NA,NA,NA,-117.072585226315,33.1225140968356
"506","SKS INC",6901,"1141 E ST","SAN DIEGO",92101,"858-530-1193",NA,8,0,4,"DOWNTOWN",1516.21502084,66053186.5307,55781.5643997,-117.154231945026,32.7144047593973
"507","SKS INC.",7116,"610 N 2ND ST","EL CAJON",92021,"858-530-1193",NA,12,0,NA,NA,NA,NA,NA,-116.936114363187,32.8024095372772
"508","SKS INC.",2708,"6350 MIRAMAR RD","SAN DIEGO",92121,"858-530-1193",NA,8,0,99,"UNIVERSITY",8676.16635746,377944307.934,116391.386355,-117.177435318274,32.8782933683681
"509","SKS INC.",2710,"620 S SANTA FE","VISTA",92084,"858-530-1193",NA,7,0,NA,NA,NA,NA,NA,-117.237791998033,33.1960896267367
"510","SKS,INC",5263,"9270 DOWDY DR","SAN DIEGO",92126,"858-530-1193",NA,16,0,15,"MIRA MESA",10729.0159538,467349981.008,107975.395374,-117.147284680785,32.8902693190903
"511","SKYLINE CONVENIENCE STORE - K.JAMIL",2324,"7346 SKYLINE DR","SAN DIEGO",92114,"266-1464",NA,36,0,44,"SKYLINE-PARADISE HILLS",4584.64108792,199707175.488,74959.3532478,-117.040711117592,32.7042712526732
"512","SOCO GROUP, INC., THE",2083,"145 VERNON WY","EL CAJON",92020,"619-440-8811",NA,58,0,NA,NA,NA,NA,NA,-116.963721836601,32.8121152411683
"513","SPEEDY MART",15295,"1791 N 2ND ST","EL CAJON",92021,"619 447-9119",NA,28,0,NA,NA,NA,NA,NA,-116.934421371934,32.8205310066031
"514","SPIRIT AUTO CENTER",3014,"12402 WOODSIDE AVE","LAKESIDE",92040,"510-842-9002",NA,24,0,NA,NA,NA,NA,NA,-116.925126908077,32.8572890296931
"515","STARS PETROLEUM, INC. (MOBIL)",12405,"1910 MAIN ST","RAMONA",92065,"760-788-7800","JIM KURTENBACK",56,0,NA,NA,NA,NA,NA,-116.8825274341,33.0327246402128
"516","STONECREST GAS AND WASH, INC.",14670,"3690 MURPHY CANYON RD","SAN DIEGO",92123,"858 874-3119",NA,52,0,50,"KEARNY MESA",4422.62522793,192654079.159,85207.8673967,-117.116457137492,32.8085600977941
"517","SUN VALLEY FUEL",4198,"550 N ESCONDIDO BLVD","ESCONDIDO",92025,"760 745-6193","BASHER JARBO",24,0,NA,NA,NA,NA,NA,-117.087288077696,33.1255601809568
"518","SUNDANCE MARKET 2",2320,"4689 MARKET ST","SAN DIEGO",92102,"262-6627",NA,26,0,11,"ENCANTO NEIGHBORHOODS,SOUTHEASTERN",3810.65246109,165991994.197,65747.9107336,-117.093897724961,32.7111174286547
"519","SUPER STAR STATIONS INC",13413,"1110 E MAIN ST","EL CAJON",92021,NA,NA,24,0,NA,NA,NA,NA,NA,-116.944276783949,32.795242253088
"520","SUPREME GASOLINE",15499,"196 BRDWY","CHULA VISTA",91910,"619 427-8484",NA,24,0,NA,NA,NA,NA,NA,-117.093966337529,32.6415456626118
"521","SWEETWATER GAS",15555,"2835 SWEETWATER RD","SPRING VALLEY",91977,"619 589-6089",NA,20,0,NA,NA,NA,NA,NA,-117.014141869543,32.7364462161439
"522","SYSCO PETROLEUM",14618,"2777 HEALTH CENTER DR","SAN DIEGO",92123,"619-920-1188",NA,28,0,35,"SERRA MESA",2210.57457253,96335366.3695,57827.3555222,-117.156528154197,32.7930449114178
"523","TEXACO-CALIFORNIA FINEST OIL, INC",12851,"1102 HOLLISTER ST","SAN DIEGO",92154,NA,NA,22,0,25,"OTAY MESA-NESTOR",5367.82083453,233822275.552,95210.7085828,-117.084457408299,32.5762298024566
"524","TEXACO-E & D STATION INC",2354,"312 S MAIN ST","FALLBROOK",92028,"760-728-2843",NA,12,0,NA,NA,NA,NA,NA,-117.251021284455,33.3799596930959
"525","TEXACO-FALLBROOK",18,"936 E MISSION RD","FALLBROOK",92028,"760-731-6480",NA,40,0,NA,NA,NA,NA,NA,-117.241814276884,33.3870408828098
"526","TEXACO-QUICK MART",10278,"3105 FAIRMONT AVE","SAN DIEGO",92105,"619-283-2533",NA,14,0,56,"MID-CITY:CITY HEIGHTS",2935.50927873,127870892.422,53479.7643387,-117.100668813163,32.7386545116138
"527","THRIFTY  #9575",2679,"1551 ROSECRANS AVE","SAN DIEGO",92106,"619-222-8919",NA,30,0,30,"PENINSULA",5282.33053107,230118805.311,128220.9802,-117.226900350382,32.7268195025363
"528","THRIFTY #9532",2659,"700 AVOCADO AVE","EL CAJON",92020,"714 670 5051",NA,36,0,NA,NA,NA,NA,NA,-116.958172051094,32.7873751857003
"529","THRIFTY #9561",12484,"833 TURQUOISE ST","SAN DIEGO",92109,NA,NA,30,0,27,"PACIFIC BEACH",2609.08329077,113649440.618,60036.3387182,-117.258830059891,32.8084868607713
"530","THRIFTY #9564",2667,"6404 MISSION GORGE RD","SAN DIEGO",92120,"714-670-5179",NA,16,0,20,"NAVAJO",9087.30876031,395843630.815,113466.64168,-117.098097648414,32.7901406758425
"531","THRIFTY #9568",2671,"401 TELEGRAPH CANYON RD","CHULA VISTA",91910,NA,NA,36,0,NA,NA,NA,NA,NA,-117.046248153819,32.6287993451616
"532","THRIFTY #9569",2673,"1734 HIGHLAND AVE","NATIONAL CITY",91950,NA,NA,40,0,NA,NA,NA,NA,NA,-117.095829997267,32.6697344927978
"533","THRIFTY #9571",2675,"4330 ORANGE AVE","SAN DIEGO",92105,NA,NA,30,0,56,"MID-CITY:CITY HEIGHTS",2935.50927873,127870892.422,53479.7643387,-117.101143036091,32.7534086384162
"534","THRIFTY #9572",2676,"1484 E WASHINGTON AVE","EL CAJON",92019,"714-670-5179",NA,36,0,NA,NA,NA,NA,NA,-117.063165605285,33.1362937962506
"535","THRIFTY #9573",2677,"1525 N MAGNOLIA AVE","EL CAJON",92020,NA,NA,20,0,NA,NA,NA,NA,NA,-116.961936216672,32.818708153957
"536","THRIFTY #9574",2678,"9009 CARLTON HILLS BLVD","SANTEE",92071,"714-670-5179",NA,36,0,NA,NA,NA,NA,NA,-116.996172712894,32.8412359604453
"537","THRIFTY #9577",2682,"489 W MAIN ST","EL CAJON",92020,NA,NA,16,0,NA,NA,NA,NA,NA,-116.967498562499,32.7944921015008
"538","THRIFTY #9749",2691,"802 N COAST HIGHWY","OCEANSIDE",92054,"714-670-5179",NA,24,0,NA,NA,NA,NA,NA,-117.383656091268,33.2013105865572
"539","THRIFTY #9751",2693,"1902 SUNSET CLIFFS BLVD","SAN DIEGO",92107,NA,NA,16,0,23,"OCEAN BEACH",641.45056657,27941631.7469,37944.3610656,-117.247563799252,32.7451284077539
"540","THRIFTY #9752",2694,"3255 UNIVERSITY AVE","SAN DIEGO",92104,NA,NA,36,0,28,"GREATER NORTH PARK",2253.69411336,98171624.1502,50884.2009183,-117.123482535133,32.7482182927024
"541","THRIFTY/ ARCO #9576",2681,"4202 CLAIREMONT MESA BLVD","SAN DIEGO",92117,NA,NA,24,0,6,"CLAIREMONT MESA",8539.17388935,371970138.828,91823.2606488,-117.202072020871,32.831386185942
"542","TIERRASANTA TOWN CENTER GAS",15726,"10585 TIERRASANTA BLVD","SAN DIEGO",92124,"858 560-4101",NA,24,0,47,"TIERRASANTA",7247.00443508,315690085.394,100491.414085,-117.101516222567,32.8228147217769
"543","TRUCK.NET, LLC.",0,"8490 AVENIDO DE LA FUENTE","SAN DIEGO",92154,"619 661-1888",NA,113,0,26,"OTAY MESA",9316.12916262,405811314.107,105906.774574,-116.961413447138,32.5574413898813
"544","U.S. GAS",12959,"3520 SWEETWATER SPRINGS BLVD","SPRING VALLEY",91977,"619 670-1497",NA,28,0,NA,NA,NA,NA,NA,-116.973210346406,32.7428863271821
"545","ULTRA GAS",15118,"3276 EL CAJON BLVD","SAN DIEGO",92104,NA,NA,24,0,59,"MID-CITY:NORMAL HEIGHTS",846.03495556,36853397.1634,25359.5506162,-117.12331042278,32.7556281133638
"546","UNITED RENTALS",3186,"501 C ST","CHULA VISTA",91910,"422-1105",NA,2,0,NA,NA,NA,NA,NA,-117.092578946764,32.6496779680963
"547","UNITED RENTALS",854,"5580 KEARNY VILLA RD","SAN DIEGO",92123,"565-7122",NA,2,0,50,"KEARNY MESA",4422.62522793,192654079.159,85207.8673967,-117.137072783058,32.8364110849008
"548","UNIVERSITY CITY SERVICE CENTER, INC.",13895,"3901 GOVERNOR DR","SAN DIEGO",92122,NA,NA,24,0,99,"UNIVERSITY",8676.16635746,377944307.934,116391.386355,-117.204055638941,32.8543073383169
"549","UNOCAL CONOCOPHILLIPS#256412",2884,"121 E SAN YSIDRO BLVD","SAN DIEGO",92173,NA,NA,24,0,33,"SAN YSIDRO",1862.29010478,81121357.007,44119.18566,-117.043417857935,32.5524471624163
"550","UNOCAL CONOCOPHILLIPS#256576 KAY OIL CO",4088,"2375 E VALLEY PKWY","ESCONDIDO",92027,"759-3484",NA,44,0,NA,NA,NA,NA,NA,-117.044349684171,33.1405302543861
"551","USA CORPORATION #137",2718,"8659 JAMACHA RD","SPRING VALLEY",91977,"818-865-9200",NA,39,0,NA,NA,NA,NA,NA,-117.012346850568,32.7144629418533
"552","USA CORPORATION #245",2719,"411 S ESCONDIDO BLVD","ESCONDIDO",92025,"818-865-9200",NA,39,0,NA,NA,NA,NA,NA,-117.082368246546,33.1172308148238
"553","USA CORPORATION #246",3796,"7505 BRDWY","LEMON GROVE",91945,"818-865-9200",NA,26,0,NA,NA,NA,NA,NA,-117.036073674558,32.7423437669336
"554","USA GASOLINE /PALISADES GAS & WASH #851",14525,"12010 SCRIPPS HIGHLAND DR","SAN DIEGO",92131,"818 856-9200",NA,42,0,9,"MIRAMAR RANCH NORTH",1894.01237496,82503119.1815,50714.3797568,-117.108248727997,32.9367571296865
"555","VALERO",15094,"12106 WOODSIDE AVE","LAKESIDE",92040,"619 482-8275",NA,24,0,NA,NA,NA,NA,NA,-116.930967629175,32.8564935842231
"556","VALERO",15277,"785 JAMACHA RD","EL CAJON",92019,"619 447-9119",NA,28,0,NA,NA,NA,NA,NA,-116.927541192447,32.7855548086158
"557","VALERO #3739/",2494,"4342 INGRAHAM ST","SAN DIEGO",92109,"559-583-3298",NA,36,0,27,"PACIFIC BEACH",2609.08329077,113649440.618,60036.3387182,-117.240593831621,32.7974720317908
"558","VALERO #3740",2495,"1083 MORENA BLVD","SAN DIEGO",92110,"559-583-3298",NA,24,0,12,"LINDA VISTA",2732.27635866,119018237.81,61745.5248429,-117.199354804598,32.7682525093758
"559","VALERO #3741",2501,"3150 ADAMS AVE","SAN DIEGO",92116,"559-583-3298",NA,18,0,59,"MID-CITY:NORMAL HEIGHTS",846.03495556,36853397.1634,25359.5506162,-117.126258455453,32.763586820863
"560","VALERO #3743",14714,"4405 HOME AVE","SAN DIEGO",92105,NA,NA,18,0,56,"MID-CITY:CITY HEIGHTS",2935.50927873,127870892.422,53479.7643387,-117.099118971348,32.7288427317679
"561","VALERO #3744",2499,"9932 CAMPO RD","SPRING VALLEY",91977,"559-583-3298",NA,18,0,NA,NA,NA,NA,NA,-116.982134797772,32.7482241455524
"562","VALERO -CARDIFF",14428,"820 BIRMINGHAM DR","CARDIFF BY TH",92007,"760 436-1820","YOUNIS BALLO",28,0,NA,NA,NA,NA,NA,-117.273217946667,33.0267054438991
"563","VALERO INC. #3766/ATTN: DENNIS SMITH",10328,"5970 SANTO RD","SAN DIEGO",92124,"559-583-3298",NA,36,0,47,"TIERRASANTA",7247.00443508,315690085.394,100491.414085,-117.0978989717,32.8401417977267
"564","VALERO -LOS COCHES VALERO",15588,"8575 LOS COCHES RD","EL CAJON",92021,"619 390-5444",NA,12,0,NA,NA,NA,NA,NA,-116.904384158977,32.8319618661878
"565","VALERO -RAMONA VALERO",14598,"1210 MAIN ST","RAMONA",92065,"760 789-2411","YOUSIF, YOUSIF",32,0,NA,NA,NA,NA,NA,-116.871798006299,33.0399558652094
"566","VALERO-EBK PETROLEUM INC",13170,"5345 KEARNEY VILLA RD","SAN DIEGO",92123,NA,NA,32,0,50,"KEARNY MESA",4422.62522793,192654079.159,85207.8673967,-117.14054171714,32.8302974779312
"567","VALERO-MISSION GORGE",13382,"6011 MISSION GORGE RD","SAN DIEGO",92120,NA,NA,28,0,20,"NAVAJO",9087.30876031,395843630.815,113466.64168,-117.097961504232,32.783266917004
"568","VALERO-TEXAS ST VALERO",14086,"4616 TEXAS ST","SAN DIEGO",92116,"619-296-4913","SAMIR SOMO - PRESIDENT",24,0,28,"GREATER NORTH PARK",2253.69411336,98171624.1502,50884.2009183,-117.139099210403,32.7612889342122
"569","VALERO-TJ AUTO BISTRO/PACIFIC OIL",14590,"1202 S COAST HWY","OCEANSIDE",92054,NA,NA,28,0,NA,NA,NA,NA,NA,-117.36880368877,33.1835142004029
"570","VALLEY CENTER EQUIPMENT RENTALS",12982,"27427 VALLEY CENTER RD","VALLEY CENTER",92082,"760-749-1780",NA,2,0,NA,NA,NA,NA,NA,-117.032982848106,33.2084765098738
"571","VALLEY FUELS",13391,"1602 E VALLEY PKWY","ESCONDIDO",92027,NA,NA,28,0,NA,NA,NA,NA,NA,-117.059394572213,33.1343983332319
"572","VILLAGE FOOD & FUEL",16065,"755 PALM CANYON DR","BORREGO SPRIN",92004,"760 767-0800",NA,9,0,NA,NA,NA,NA,NA,-116.372734614552,33.2561488350178
"573","VISTA EQUIPMENT RENTAL",9607,"1121 S SANTA FE AVE","VISTA",92083,"760-726-6114",NA,2,0,NA,NA,NA,NA,NA,-117.227234271668,33.1896137177818
"574","VONS GAS #2344",13779,"469  W FELICITA","ESCONDIDO",92025,NA,NA,42,0,NA,NA,NA,NA,NA,-117.074881089225,33.1031977787363
"575","VONS GAS MARKET EXPRESS #216",16100,"1680 GARNET AVE","SAN DIEGO",92109,"858 272-5359",NA,40,0,27,"PACIFIC BEACH",2609.08329077,113649440.618,60036.3387182,-117.239426175983,32.8004240612212
"576","WORLD OIL COMPANY #46",4029,"685 H ST","CHULA VISTA",91910,"562-928-0100",NA,36,0,NA,NA,NA,NA,NA,-117.092938420795,32.6303508689846
"577","WORLD PETROL-CALI-MART #2",13902,"1605 CACTUS RD","SAN DIEGO",92154,"610-671-7095",NA,56,0,26,"OTAY MESA",9316.12916262,405811314.107,105906.774574,-116.987721432771,32.5676747089928
"578","XL CO.",3899,"525 PALM CANYON DR","BORREGO SPRIN",92004,"760-767-5587",NA,26,0,NA,NA,NA,NA,NA,-116.38337896148,33.2561326843218
"579","7 ELEVEN #32326/7-ELEVEN, INC",11216,"3251 BUSINESS PARK DR","VISTA",92081,NA,NA,48,0,NA,NA,NA,NA,NA,-117.228920695104,33.1326508549743
"580","76 - CAMPUS 76",15728,"102 E CARMEL ST","SAN MARCOS",92069,"760-752-7600",NA,36,0,NA,NA,NA,NA,NA,-117.163300874942,33.1360896343649
"581","76 MIRAMAR AUTOPORT 76, INC.",2841,"5706 MIRAMAR RD","SAN DIEGO",92121,"858-450-1620","THOMAS D. DRAKE/760-815-5808",41,0,99,"UNIVERSITY",8676.16635746,377944307.934,116391.386355,-117.185100773355,32.877483186798
"582","76 PRODUCTS/NORTH COUNTY AUTO CENTER-MM",13427,"750 N ESCONDIDO BLVD","ESCONDIDO",92025,NA,NA,78,0,NA,NA,NA,NA,NA,-117.088644029593,33.128847787409
"583","76-KING'S EL NORTE 76",12905,"1062 W EL NORTE PKWY","ESCONDIDO",92026,"760 741-7600",NA,32,0,NA,NA,NA,NA,NA,-117.10733978162,33.147545088681
"584","76-MR GOODWASH, THE MAGIC GARDEN, INC.",15041,"2315 VISTA WY","OCEANSIDE",92054,"760 721-4747",NA,24,0,NA,NA,NA,NA,NA,-117.337688698278,33.181733465761
"585","7-ELEVEN #17637 /7-ELEVEN, INC",2092,"1522 GRAVES AVE STE E","EL CAJON",0,"579-8711",NA,12,0,NA,NA,NA,NA,NA,-116.959514582454,32.8195249761751
"586","7-ELEVEN #18977 /7-ELEVEN, INC",2437,"578 MISSION RD","SAN MARCOS",92069,"438-8444",NA,12,0,NA,NA,NA,NA,NA,-117.149678887601,33.1453859778331
"587","7-ELEVEN #19987 /7-ELEVEN, INC",2150,"3603 COLLEGE AVE","SAN DIEGO",92115,"464-2711",NA,12,0,57,"MID-CITY:EASTERN AREA",3115.1057929,135693919.385,61687.0047213,-117.058797790528,32.7461845910299
"588","7-ELEVEN #20342 /7-ELEVEN, INC",2438,"487 VANDEGRIFT","OCEANSIDE",92057,"438-8444",NA,12,0,NA,NA,NA,NA,NA,-117.299911089645,33.2546409775763
"589","7-ELEVEN #21785 /7-ELEVEN, INC",2510,"260 E MISSION AVE","ESCONDIDO",92025,"268-1070",NA,12,0,NA,NA,NA,NA,NA,-117.159480847531,33.1429129640889
"590","7-ELEVEN #27109 /7-ELEVEN, INC",5928,"901 PALOMAR AIRPORT RD","CARLSBAD",92009,"431-9724",NA,12,0,NA,NA,NA,NA,NA,-117.318750461339,33.1216567185715
"591","7-ELEVEN #27524 /7-ELEVEN, INC",5569,"1177 N ESCONDIDO BLVD","ESCONDIDO",92026,NA,NA,12,0,NA,NA,NA,NA,NA,-117.25081389554,33.1820205596825
"592","7-ELEVEN #33053, INC",12500,"4625 FRAZEE RD","OCEANSIDE",92057,NA,NA,36,0,NA,NA,NA,NA,NA,-117.297604941886,33.2375529468468
"593","7-ELEVEN #33160",14120,"298 SYCAMORE DR","VISTA",92083,"760-598-0590",NA,24,0,NA,NA,NA,NA,NA,-117.211904080971,33.1700047027234
"594","APRO #37",16145,"535 N SANTA FE AVE","VISTA",92083,NA,NA,26,0,NA,NA,NA,NA,NA,-117.244585117381,33.2071817578655
"595","ARCO",14121,"1580 LEUCADIA BLVD","ENCINITAS",92024,NA,NA,40,0,NA,NA,NA,NA,NA,-117.264478272676,33.0684830688649
"596","ARCO AM/PM MINI MART #1754",14123,"300 W WASHINGTON AVE","ESCONDIDO",92025,NA,"NAOUM, SENAN F.",24,0,NA,NA,NA,NA,NA,-117.088423105373,33.1258971096006
"597","ARCO AM/PM-JLHAN, INC.",11090,"13886 CAMPO RD","JAMUL",91935,"619-669-6602",NA,26,0,NA,NA,NA,NA,NA,-116.879311708662,32.7198704148723
"598","ARCO AM/PM-LEMON GROVE",13801,"2717 LEMON GROVE AVE","LEMON GROVE",91945,"619-589-2058",NA,24,0,NA,NA,NA,NA,NA,-117.031032262022,32.7351290401929
"599","ARCO AMPM #5268",7771,"1187 SAN MARCOS BLVD","SAN MARCOS",92069,NA,NA,24,0,NA,NA,NA,NA,NA,-117.193399288111,33.1330156920114
"600","ARCO AMPM #5365",7288,"100 LA TERRAZA BLVD","ESCONDIDO",92025,NA,NA,36,0,NA,NA,NA,NA,NA,-117.095814604381,33.1168779591851
"601","ARCO AMPM #5404",1540,"3170 CARMEL VALLEY RD","SAN DIEGO",92130,NA,NA,36,0,21,"CARMEL VALLEY",4525.42412552,197127540.728,77310.6067786,-117.238411066976,32.9343943581632
"602","ARCO AMPM #5408",7820,"2255 PALM AVE","SAN DIEGO",92154,NA,NA,16,0,25,"OTAY MESA-NESTOR",5367.82083453,233822275.552,95210.7085828,-117.085474190614,32.5835129211061
"603","ARCO AMPM #6315",9276,"1403 S SANTA FE AVE","VISTA",92083,"760-726-8188",NA,24,0,NA,NA,NA,NA,NA,-117.223374198955,33.1844985824913
"604","ARCO AMPM#6376",11264,"450 W EL NORTE PKWY","ESCONDIDO",92026,NA,NA,36,0,NA,NA,NA,NA,NA,-117.097541390862,33.1445029302593
"605","ARCO-ESTATE FUELS",15818,"4604 PALM AVE","SAN DIEGO",92154,"519 690-5405",NA,36,0,26,"OTAY MESA",9316.12916262,405811314.107,105906.774574,-117.035124769824,32.5842008228677
"606","ARCO-SYCAMORE AM/PM #5254",4291,"625 SYCAMORE AVE","VISTA",92083,"760-727-8965",NA,24,0,NA,NA,NA,NA,NA,-117.215138126008,33.1658726602179
"607","BJ'S RENTALS",15308,"203 S RANCHO SANTA FE","ENCINITAS",92024,"760 753-1148",NA,2,0,NA,NA,NA,NA,NA,-117.236126524317,33.0359814649544
"608","CHEVRON  # 207541",11231,"12295 SCRIPPS POWY PKWY","POWY",92064,"858-621-6324",NA,36,0,NA,NA,NA,NA,NA,-117.060616577888,32.9345128693377
"609","CHEVRON - #201962",1860,"2295 S MELROSE AVE","VISTA",92083,"510-842-9002",NA,36,0,NA,NA,NA,NA,NA,-117.241703943409,33.1458550114856
"610","CHEVRON - #92189",6246,"2325 ROLL DR","SAN YSIDRO",92173,"510-842-9002",NA,24,0,26,"OTAY MESA",9316.12916262,405811314.107,105906.774574,-116.937080839603,32.5563242401939
"611","CHEVRON - #93320",3041,"970 TAMARACK RD","CARLSBAD",92008,"510-842-9002",NA,24,0,NA,NA,NA,NA,NA,-117.335044024447,33.1531776705229
"612","CHEVRON - #95664",3539,"540 LA COSTA AVE","LEUCADIA",92024,"510-842-9002",NA,30,0,NA,NA,NA,NA,NA,-117.299587756387,33.0844534520876
"613","CHEVRON #202870",9925,"1200 W SAN MARCOS BLVD","SAN MARCOS",92069,"510-842-9002",NA,36,0,NA,NA,NA,NA,NA,-117.194627087074,33.1334258401395
"614","CHEVRON #203189",9956,"785 COLLEGE BLVD","OCEANSIDE",92057,"510-842-9002",NA,36,0,NA,NA,NA,NA,NA,-117.293088458302,33.242382628031
"615","CHEVRON #209663",12571,"695 E PALOMAR ST","CHULA VISTA",91911,NA,NA,36,0,NA,NA,NA,NA,NA,-117.024499175483,32.614694007262
"616","CHEVRON -QUARRY CREEK",14729,"3490 MARRON RD","OCEANSIDE",92056,"760-724-4450",NA,52,0,NA,NA,NA,NA,NA,-117.294863814287,33.1788334341766
"617","CHEVRON STATION",15495,"8200 UNIVERSITY AVE","LA MESA",0,"-619",NA,32,0,NA,NA,NA,NA,NA,-117.021431788122,32.767724331837
"618","CHEVRON TEXACO #30-1124",15066,"2115 OLYMPIC PKWY","CHULA VISTA",91915,NA,NA,36,0,NA,NA,NA,NA,NA,-116.966402176845,32.6289187811417
"619","CHEVRON-PALM SPRING OIL CO.",2023,"110 S RANCHO SANTA FE RD","SAN MARCOS",92069,"760.320.0644","CAROL",48,0,NA,NA,NA,NA,NA,-117.199434589523,33.1488671621828
"620","CHEVRON-ROCCO BRUNO",11944,"224 N EMERALD DR","VISTA",92083,"760-724-3670",NA,36,0,NA,NA,NA,NA,NA,-117.279966072875,33.1906419010703
"621","CHEVRON-ROWLEY PETROLEUM CORPORATION",10827,"2191 VISTA WY","OCEANSIDE",92054,"760-721-6789",NA,36,0,NA,NA,NA,NA,NA,-117.340043306576,33.1831478368388
"622","CHEVRON-WESTERN STATES PETROLEUM #2 LL",12965,"600 HACIENDA DR","VISTA",92081,NA,NA,40,0,NA,NA,NA,NA,NA,-117.254108224924,33.193118723165
"623","CIRCLE K - #1984",5358,"795 SHADOWRIDGE DR","VISTA",92081,"602 728-3593",NA,12,0,NA,NA,NA,NA,NA,-117.221912535823,33.1660179802094
"624","CIRCLE K/76 #2705246",13838,"3350 COLLEGE BLVD","OCEANSIDE",92056,"281-293-1000",NA,12,0,NA,NA,NA,NA,NA,-117.296043100137,33.1857672240366
"625","CIRCLE K/76 #2705250",13839,"190 SAN MARCOS BLVD","SAN MARCOS",92069,"281-293-1000",NA,24,0,NA,NA,NA,NA,NA,-117.165043932953,33.1414338790516
"626","COSTCO GASOLINE #403",11126,"101 TOWN CENTER PKWY","SANTEE",92071,NA,NA,32,0,NA,NA,NA,NA,NA,-116.987200994517,32.8408126191174
"627","COSTCO WHOLESALE #462/ATTN: LICENSING",10598,"951 PALOMAR AIRPORT RD","CARLSBAD",92009,NA,NA,32,0,NA,NA,NA,NA,NA,-117.315648640966,33.1208128434136
"628","COUNTY OF SAN DIEGO/FUELING STA-SAN MAR",10360,"1579 OSAGE","SAN MARCOS",92069,NA,NA,4,0,NA,NA,NA,NA,NA,-117.196352120437,33.1472227385799
"629","EL CAPITAN OIL CO/ATTISHA ENTERPRISES",13512,"11427 WOODSIDE AVE","SANTEE",0,"619-448-5891",NA,25,0,NA,NA,NA,NA,NA,-116.951158159612,32.8500776963477
"630","ENERGY PRODUCT & SERVICE",15387,"1742 S COAST HWY","OCEANSIDE",92054,"760-433-6711",NA,22,0,NA,NA,NA,NA,NA,-117.362213098729,33.1757048643892
"631","ESCO FUELS",14589,"501 W 9TH AVE","ESCONDIDO",92025,"760-839-6791",NA,28,0,NA,NA,NA,NA,NA,-117.082000264129,33.1113175547837
"632","EXXON #1015/NEW WEST PETROLEUM SD2",2239,"945 TAMARACK AVE","CARLSBAD",92008,"916-443-0890",NA,28,0,NA,NA,NA,NA,NA,-117.335276731282,33.1524431547935
"633","EXXON #1021/NEW WEST PETROLEUM SD2",1962,"825 N CITRACADO","ESCONDIDO",92029,"916-443-0890",NA,28,0,NA,NA,NA,NA,NA,-117.12231550316,33.1314878327882
"634","EXXON #1024/NEW WEST PETROLEUM SD1",2959,"3401 COLLEGE BLVD","OCEANSIDE",92056,"916-443-0890",NA,28,0,NA,NA,NA,NA,NA,-117.296745083344,33.1815945868569
"635","EXXON #1041/NEW WEST PETROLEUM SD1",4301,"112 S RANCHO SANTA FE RD","SAN MARCOS",92069,"916-443-0890",NA,34,0,NA,NA,NA,NA,NA,-117.198967584865,33.1496423737379
"636","EXXONMOBIL OIL CORP. #10015",1932,"705 LOMAS SANTA FE DR","SOLANA BEACH",92075,"858-755-3579","SHAHIN EDALATDJA/VICE PRESID",36,0,NA,NA,NA,NA,NA,-117.258660258669,32.995665615025
"637","EXXONMOBIL OIL CORP. #11433",5755,"710 SYCAMORE AVE","VISTA",92081,"727-5360",NA,36,0,NA,NA,NA,NA,NA,-117.217683697655,33.1645263449063
"638","EXXONMOBIL OIL CORP. #11795",3192,"477 HARBOR DR","OCEANSIDE",92054,"760-722-0555",NA,24,0,NA,NA,NA,NA,NA,-117.388171402209,33.2086424635917
"639","EXXONMOBIL OIL CORP. #12924",10606,"2210 OTAY LAKES RD","CHULA VISTA",91915,"619-216-1890",NA,38,0,NA,NA,NA,NA,NA,-116.968591318848,32.6464656270373
"640","EXXONMOBIL OIL CORP. #18090",11581,"1990 COLLEGE BLVD","OCEANSIDE",92056,"760-630-9510",NA,52,0,NA,NA,NA,NA,NA,-117.284327613625,33.2078918510357
"641","HAWTHORNE MACHINERY CO.",16259,"1600 E MISSION RD","SAN MARCOS",92069,"760-740-2900",NA,1,0,NA,NA,NA,NA,NA,-117.124469766308,33.1324631140781
"642","HOMELAND PETROLEUM - IMPERIAL",11153,"4704 IMPERIAL AVE","SAN DIEGO",92102,"619 246 5078",NA,40,0,11,"ENCANTO NEIGHBORHOODS,SOUTHEASTERN",3810.65246109,165991994.197,65747.9107336,-117.093219435663,32.7044439030502
"643","KA MANAGEMENT/MELROSE ARCO LLC",11032,"1501 N MELROSE DR","OCEANSIDE",92056,"760-806-4445",NA,46,0,NA,NA,NA,NA,NA,-117.259310321257,33.2203348391388
"644","MOHSEN OIL",13566,"1328 3RD AVE","CHULA VISTA",91911,"760-945-7222",NA,30,0,8,"GREATER GOLDEN HILL",745.51826715,32475130.7948,29195.1594048,-117.123828621722,32.7198210138394
"645","OCHS OIL COMPANY(TEXACO)",307,"1321 DISTRIBUTION WY","VISTA",92084,"760 744-5441",NA,32,0,NA,NA,NA,NA,NA,-117.236386990779,33.1508302852839
"646","OPTIMA GASOLINE",7037,"1450 3RD AVE","CHULA VISTA",91911,"619-585-0011",NA,36,0,NA,NA,NA,NA,NA,-117.065017090296,32.6014134177025
"647","PENSKE TRUCK  LEASING CORP.",11742,"1355 LINDA VISTA DR","SAN MARCOS",92069,"760-471-5707",NA,2,0,NA,NA,NA,NA,NA,-117.196589404488,33.1369677294082
"648","RANCHO SANTA FE GAS",2051,"105 S RANCHO SANTA FE RD","SAN MARCOS",92069,"760 471-5448","SHAWN HINDI",28,0,NA,NA,NA,NA,NA,-117.198716049358,33.1485895709536
"649","RYDER TRUCK RENTAL",446,"520 GANNON","ESCONDIDO",92025,"489-5830",NA,2,0,NA,NA,NA,NA,NA,-117.089663562703,33.1224029751531
"650","SAN MARCOS GAS",8089,"1290 W MISSION RD","SAN MARCOS",92069,"760 752-7082",NA,40,0,NA,NA,NA,NA,NA,-117.188192328823,33.1486088514195
"651","SHELL CARWASH @ ENCINITAS RANCH",10370,"1060 N EL CAM REAL","ENCINITAS",92024,"760-943-9797",NA,48,0,NA,NA,NA,NA,NA,-117.264529728319,33.0672863561907
"652","SHELL OIL PRODUCTS US #121715",4065,"679 SAN MARCOS BLVD","SAN MARCOS",92069,"602-468-6944",NA,44,0,NA,NA,NA,NA,NA,-117.178449436048,33.136894014703
"653","SHELL OIL PRODUCTS US #135645",1936,"1601 E 8TH ST","NATIONAL CITY",91950,"602-468-6944",NA,30,0,NA,NA,NA,NA,NA,-117.089281180427,32.6802101216218
"654","SHELL OIL PRODUCTS US #135911",2368,"3890 DIVISION ST","SAN DIEGO",92113,"602-468-6944",NA,24,0,37,"SOUTHEASTERN SAN DIEGO,SOUTHEASTERN",2928.98056395,127586393.366,62401.1417428,-117.110261892115,32.6829720447471
"655","SHELL OIL PRODUCTS US #135920",2186,"2606 CLAIREMONT DR","SAN DIEGO",92117,"602-468-6944",NA,24,0,6,"CLAIREMONT MESA",8539.17388935,371970138.828,91823.2606488,-117.202907151686,32.7907956795822
"656","SHELL-EQUILON ENT LLC/ATTN: PONCE",4595,"100 BONITA RD","CHULA VISTA",91910,"602-468-6944",NA,28,0,NA,NA,NA,NA,NA,-117.062880431347,32.6459938213858
"657","SKS INC.",2709,"875 GRAND AVE","SAN MARCOS",92069,"858-530-1193",NA,16,0,NA,NA,NA,NA,NA,-117.182378711548,33.1391296149831
"658","SKS, INC.",10722,"13910 DANIELSON ST","POWY",92064,"858-530-1193",NA,28,0,NA,NA,NA,NA,NA,-117.030401659772,32.9406106571592
"659","THRIFTY #9560",2663,"2502 IMPERIAL AVE","SAN DIEGO",92102,NA,NA,36,0,37,"SOUTHEASTERN SAN DIEGO,SOUTHEASTERN",2928.98056395,127586393.366,62401.1417428,-117.139808190028,32.7065242324733
"660","THRIFTY #9562",5767,"978 CUYAMACA ST","EL CAJON",92020,"714-670-5179",NA,24,0,NA,NA,NA,NA,NA,-116.98000551536,32.8082130364522
"661","THRIFTY #9566",2669,"1606 PLAZA BLVD","NATIONAL CITY",91950,NA,NA,36,0,NA,NA,NA,NA,NA,-117.088602904431,32.6763805861
"662","THRIFTY #9570",2674,"1139 HARBISON AVE","NATIONAL CITY",91950,NA,NA,36,0,NA,NA,NA,NA,NA,-117.073841948218,32.6822354558365
"663","THRIFTY #9578",2683,"9600 MURRAY DR","LA MESA",91942,"714-670-5179",NA,20,0,NA,NA,NA,NA,NA,-116.990022989752,32.7799216845008
"664","UNITED RENTALS",6965,"1960 W MISSION RD","ESCONDIDO",92029,"760-726-7200",NA,2,0,NA,NA,NA,NA,NA,-117.120432310888,33.1301728792562
"665","USA- PALISADES GAS & WASH, INC. #865",14599,"1382 E PALOMAR ST","CHULA VISTA",91913,"619 397-4436",NA,24,0,NA,NA,NA,NA,NA,-116.998381035035,32.623076466372
"666","VALERO-AUTO PARK TOUGHLESS WASH",7355,"1400 AUTO PARK WY","ESCONDIDO",92029,"489-8425",NA,24,0,NA,NA,NA,NA,NA,-117.104270960358,33.1142432575978
"667","WORLD PETROL CALI MART #1",12797,"3733 MAIN ST","CHULA VISTA",91911,"619-246-2213",NA,55,0,NA,NA,NA,NA,NA,-117.05306197978,32.5943118781202
"668","7-ELEVEN #15944 /7-ELEVEN, INC",2145,"9365 JAMACHA BLVD","SPRING VALLEY",91977,"464-2711",NA,12,0,NA,NA,NA,NA,NA,-116.998065500959,32.7077708874439
"669","7-ELEVEN #23982 /7-ELEVEN, INC",2517,"1303 IMPERIAL BEACH BLVD","IMPERIAL BEAC",91932,"474-7021",NA,12,0,NA,NA,NA,NA,NA,-117.105592035272,32.5763902748588
"670","AHM, INC. AIRCRAFT HANGER MNGT.",13588,"2155 S MISSION RD","FALLBROOK",92028,"760 431-7670","JIM HENDRICKS & FRANK MARSHA",1,0,NA,NA,NA,NA,NA,-117.123657818471,33.1309200953452
"671","ARCO",11934,"2336 HIGHLAND AVE","NATIONAL CITY",91950,"619-477-0034",NA,16,0,NA,NA,NA,NA,NA,-117.093684577412,32.6648063220686
"672","ARCO - FASHION VALLEY AM/PM",2364,"6899 FRIARS RD","SAN DIEGO",92108,"619-295-1169",NA,24,0,19,"MISSION VALLEY",3215.64828623,140082535.581,89502.8557087,-117.171732159595,32.7685207953065
"673","ARCO AMPM #5216",5078,"6301 EL CAJON BLVD","SAN DIEGO",92115,NA,NA,24,0,57,"MID-CITY:EASTERN AREA",3115.1057929,135693919.385,61687.0047213,-117.062812169891,32.7636242405922
"674","ARCO-AMPM #5139",5098,"3296 EL CAJON BLVD","SAN DIEGO",92104,NA,NA,24,0,59,"MID-CITY:NORMAL HEIGHTS",846.03495556,36853397.1634,25359.5506162,-117.122387831421,32.7554052968527
"675","ARCO-SMOGPROS",5094,"1410 E MAIN ST","EL CAJON",92021,"619-442-1621",NA,24,0,NA,NA,NA,NA,NA,-116.931011018463,32.7998989742208
"676","CHEVRON",15077,"3009 HIGHLAND AVE","NATIONAL CITY",91950,"619 474-2088",NA,28,0,NA,NA,NA,NA,NA,-117.091074005601,32.6589613413434
"677","CHEVRON - #92239*",3036,"2959 MIDWY DR","SAN DIEGO",92110,"510-842-9002","JEFF",36,0,14,"MIDWAY-PACIFIC HIGHWAY",918.44193686,39555950.1191,48087.3721621,-117.205780118493,32.7492675181812
"678","CHEVRON - #92335",4505,"95 BONITA RD","CHULA VISTA",91910,"510-842-9002",NA,24,0,NA,NA,NA,NA,NA,-117.06413635409,32.6481027709228
"679","CHEVRON #91312*",1949,"2500 EL CAM REAL","CARLSBAD",92008,"510-842-9002",NA,40,0,NA,NA,NA,NA,NA,-117.326732770473,33.1810446440549
"680","CHEVRON #92321 -CARLSBAD CHEVRON",14419,"1044 CARLSBAD VILLAGE DR","CARLSBAD",92008,"760 729-5851","LINDA BINNI - STORE STAFF",36,0,NA,NA,NA,NA,NA,-117.342759930917,33.1631834146131
"681","CHEVRON-G & M OIL CO.#95",12558,"1099 W MAIN ST","EL CAJON",92020,NA,NA,28,0,NA,NA,NA,NA,NA,-116.975252705988,32.7947055820293
"682","CIRCLE K #5708",5139,"98 BONITA RD","CHULA VISTA",91910,"602-728-3593",NA,36,0,NA,NA,NA,NA,NA,-117.064323764055,32.6478239970138
"683","EXXON #1018/NEW WEST PETROLEUM SD1",2530,"1699 E MAIN ST","EL CAJON",92021,"916-443-0890",NA,28,0,NA,NA,NA,NA,NA,-116.91861500538,32.8118872360495
"684","EXXONMOBIL OIL CORP #13189",2654,"2945 HIGHLAND AVE","NATIONAL CITY",91950,"619-477-9451",NA,18,0,NA,NA,NA,NA,NA,-117.091378311857,32.6597422069805
"685","EXXONMOBIL OIL CORP. #11788",7425,"14863 POMERADO RD","POWY",92064,"486-9466","ANDREA GARCIA",38,0,NA,NA,NA,NA,NA,-117.062155210469,32.9819951394743
"686","GOLDEN STATE GASOLINE, INC.",4954,"13394 POWY RD","POWY",92064,"619-593-6652",NA,24,0,NA,NA,NA,NA,NA,-117.04120768498,32.9565778089219
"687","HOLLANDIA DAIRY, INC",2337,"622 E MISSION RD","SAN MARCOS",92069,"760-744-3222",NA,28,0,NA,NA,NA,NA,NA,-117.148637141184,33.1452830297589
"688","MOBIL-ATTN: SID M. SHAHROKNI",2190,"10 OSBORN ST","NATIONAL CITY",91950,"619-477-4344",NA,24,0,NA,NA,NA,NA,NA,-117.109697392263,32.6825307538761
"689","SHELL OIL PRODUCTS US #121714",7515,"660 DOUGLAS DR","OCEANSIDE",92057,"602-468-6944",NA,28,0,NA,NA,NA,NA,NA,-117.322456890463,33.2447679084758
"690","SHELL OIL PRODUCTS US #135646",3124,"2401 E DIVISION ST","NATIONAL CITY",91950,"263-9377",NA,24,0,NA,NA,NA,NA,NA,-117.084970599257,32.6897389097168
"691","ULTRA FUEL",2973,"12365 POWY RD","POWY",92064,"858 748-1554",NA,40,0,NA,NA,NA,NA,NA,-117.063775660883,32.9516705503437
"692","BOBAR MARKET & GAS",7253,"600 F ST","CHULA VISTA",91910,"585-0988",NA,12,0,NA,NA,NA,NA,NA,-117.092675709386,32.6373914717251
"693","CHEVRON - #91214",7027,"8210 CAM SANTA FE","SAN DIEGO",92121,"510-842-9002",NA,36,0,15,"MIRA MESA",10729.0159538,467349981.008,107975.395374,-117.172690090702,32.8789277487336
"694","CIRCLE K - #2970",2452,"704 MAIN ST","RAMONA",92065,"602-728-3593",NA,12,0,NA,NA,NA,NA,NA,-116.863946364154,33.0443958772268
"695","CIRCLE K/76 #2705703",13840,"17011 W BERNARDO DR","SAN DIEGO",92127,"281-293-1000",NA,36,0,31,"RANCHO BERNARDO",6582.52496453,286763101.68,82435.4989635,-117.081804822033,33.0241862356908
"696","COUNTY OF SAN DIEGO PUBLIC WKS/VALLEY C",10347,"29216 VALLEY CENTER RD","VALLEY CENTER",92082,NA,NA,4,0,NA,NA,NA,NA,NA,-117.023741285543,33.2313909323521
"697","COUNTY OF SAN DIEGO/DESCANSO FLEET GARA",10341,"24592 VIEJAS GRADE RD","DESCANSO",91916,NA,NA,2,0,NA,NA,NA,NA,NA,-116.619450852122,32.8535753222402
"698","EXXON #1027, NEWEST PETROLEUM LLC",2018,"1666 1ST AV","SAN DIEGO",92101,"916-443-0890",NA,28,0,4,"DOWNTOWN",1516.21502084,66053186.5307,55781.5643997,-117.164027199437,32.7229730934661
"699","MTN TOP MARKET",15945,"39710 SR-80","BLVD",91905,"619-766-4530",NA,4,0,NA,NA,NA,NA,NA,-116.294109201499,32.6690547241227
"700","PACIFIC EXECUTIVE AVIATION",6743,"2450 MONTECITO RD","RAMONA",92065,"760-789-6384",NA,1,0,NA,NA,NA,NA,NA,-116.906438842143,33.0403142858451
"701","PERKINS STORE",3217,"24680 VIEJAS GRADE RD","DESCANSO",91916,NA,NA,16,0,NA,NA,NA,NA,NA,-116.616784586234,32.8531686291644
"702","PINE VALLEY STORE",5022,"28820 SR-80","PINE VALLEY",91962,"619-473-8723",NA,12,0,NA,NA,NA,NA,NA,-116.530382823573,32.8227067732273
"703","PLAVAN COMMERCIAL FUELING  INC.",11756,"9147 REHCO RD","SAN DIEGO",92121,"800-499-4645",NA,8,0,15,"MIRA MESA",10729.0159538,467349981.008,107975.395374,-117.172257717914,32.8892807836208
"704","SKS INC.",2707,"526 VENTURE ST","ESCONDIDO",92029,"858-530-1193",NA,9,0,NA,NA,NA,NA,NA,-117.152963811823,33.1360412989489
"705","VALERO - WILD BILL'S OUTPOST VALERO",15634,"1451 CARRIZO GORGE RD","JACUMBA",91934,"619 766-4455",NA,26,0,NA,NA,NA,NA,NA,-116.164268339696,32.6327146693637
"706","76 CONOCOPHILLIPS#255222",1910,"4049 POINT LOMA BLVD","SAN DIEGO",92110,"224-7761",NA,32,0,30,"PENINSULA",5282.33053107,230118805.311,128220.9802,-117.243049076238,32.7293293400512
"707","76 PALM RIDGE MARKET & 76",13602,"4360 PALM AV","SAN DIEGO",92154,"619-690-4530",NA,26,0,NA,NA,NA,NA,NA,-117.015320516523,32.7583071128743
"708","76-CIRCLE K/CARLSBAD FUELS",14129,"7602 EL CAMINO REAL","CARLSBAD",92009,"760 632-1129","CARLSBAD FUELS",52,0,NA,NA,NA,NA,NA,-117.267619363038,33.1069639976107
"709","7-ELEVEN #13597 /7-ELEVEN, INC",2505,"522 W 9TH ST","ESCONDIDO",92025,"268-1070",NA,12,0,NA,NA,NA,NA,NA,-117.082560394057,33.1116772410104
"710","7-ELEVEN #16439 /7-ELEVEN, INC",2091,"14110 SR-80","EL CAJON",92021,"579-8711",NA,12,0,NA,NA,NA,NA,NA,-116.880683011979,32.8438805907754
"711","7-ELEVEN #19526 /7-ELEVEN, INC",2148,"3792 4TH AV","SAN DIEGO",92103,"464-2711",NA,12,0,42,"UPTOWN",2646.93163314,115753599.083,61250.8361473,-117.161755753427,32.7466764222903
"712","7-ELEVEN #20321 /7-ELEVEN, INC",2095,"9750 CUYAMACA","SANTEE",92071,"579-8711",NA,12,0,NA,NA,NA,NA,NA,-116.983255466832,32.8552507390208
"713","7-ELEVEN #20884 /7-ELEVEN, INC",2154,"4253 PALM AV","LA MESA",91941,"464-2711",NA,6,0,NA,NA,NA,NA,NA,-117.014316989563,32.7562537894059
"714","7-ELEVEN #21802 /7-ELEVEN, INC",1227,"12918 CAMPO RD","JAMUL",91935,"579-8711",NA,18,0,NA,NA,NA,NA,NA,-116.908884802137,32.7283751591572
"715","7-ELEVEN #24335 /7-ELEVE, INC",3336,"1988 VILLAGE PARK WY","ENCINITAS",92024,"438-8444",NA,12,0,NA,NA,NA,NA,NA,-117.245964722225,33.0533797265234
"716","7-ELEVEN #24344 /7-ELEVEN, INC",2519,"1311 PALM AV","IMPERIAL BEAC",91932,"474-7021",NA,12,0,NA,NA,NA,NA,NA,-117.088872575355,32.6765722369529
"717","7-ELEVEN #25085 /7-ELEVEN, INC",3326,"895 BROADWAY","EL CAJON",92021,"579-8711",NA,12,0,NA,NA,NA,NA,NA,-116.951346954029,32.8073785906005
"718","7-ELEVEN #29540 /7-ELEVEN, INC",7213,"7 NAPLES","CHULA VISTA",91911,"466-0711",NA,12,0,NA,NA,NA,NA,NA,-117.057332199884,32.6172865415572
"719","7-ELEVEN #32942/ATTN: GASOLINE ACCOUNTI",12516,"5802 VAN ALLEN WY","CARLSBAD",92008,"760-931-1154",NA,24,0,NA,NA,NA,NA,NA,-117.287508231367,33.1362920648206
"720","7-ELEVEN STORE #33971",16173,"696 SAN MARCOS BLVD","SAN MARCOS",92069,"760-744-4050",NA,36,0,NA,NA,NA,NA,NA,-117.178549480041,33.1374291286662
"721","AMEX PETROLEUM",4680,"8303 PARKWAY DR","LA MESA",91942,"619-465-1155",NA,24,0,NA,NA,NA,NA,NA,-117.018129456337,32.778308675197
"722","ARCO",3685,"201 BROADWAY","EL CAJON",92021,"619-447-4347",NA,24,0,NA,NA,NA,NA,NA,-116.959996602507,32.8073149672685
"723","ARCO #9755",2699,"1185 PALM AV","IMPERIAL BEAC",91932,NA,NA,24,0,NA,NA,NA,NA,NA,-116.977043608564,32.7912064552716
"724","ARCO AM/PM-ARENA FUELS",14354,"3580 SPORTS ARENA BLVD","SAN DIEGO",92110,"619 221-0139","ARENA FUELS",48,0,14,"MIDWAY-PACIFIC HIGHWAY",918.44193686,39555950.1191,48087.3721621,-117.212854731479,32.7539971380857
"725","ARCO AMPM #5263",8074,"538 NORDAHL RD","ESCONDIDO",92029,NA,NA,24,0,NA,NA,NA,NA,NA,-117.121654959369,33.1307851364549
"726","ARCO AMPM #5297",363,"26915 MESA ROCK RD","ESCONDIDO",92026,NA,NA,36,0,NA,NA,NA,NA,NA,-117.127531226365,33.1979280415861
"727","ARCO AMPM #704",2373,"660 VIA DE LA VALLE","SOLANA BEACH",92075,NA,NA,36,0,NA,NA,NA,NA,NA,-117.256616612136,32.9795193187288
"728","ARCO, ON BROADWAY GAS",16133,"900 E BROADWAY","EL CAJON",92020,"619-440-4871",NA,1,0,NA,NA,NA,NA,NA,-116.950604599402,32.8080175625161
"729","ARCO-LAKE JENNINGS ARCO/ASSET GAS LLC",11096,"14039 HWY 8 BUSINESS","EL CAJON",92021,"619-938-0097",NA,40,0,NA,NA,NA,NA,NA,-116.882650479176,32.844976021232
"730","BEACHSIDE STATION",14270,"681 SR-75","IMPERIAL BEAC",91932,"619-424-3366",NA,24,0,NA,NA,NA,NA,NA,-117.118636744541,32.5845917571891
"731","CALIFORNIA SUPER GAS",15307,"510 5TH AV","ESCONDIDO",92025,"760 233-3975",NA,18,0,4,"DOWNTOWN",1516.21502084,66053186.5307,55781.5643997,-117.160282158282,32.7106186092526
"732","CAMERON CORNERS CONVENIENCE STORE",16160,"31484 SR-94","CAMPO",91906,NA,NA,14,0,NA,NA,NA,NA,NA,-116.472127958055,32.6288283011055
"733","CHEVRON - #90158",3034,"755 HOTEL CIRCLE","SAN DIEGO",92108,"510-842-9002",NA,24,0,19,"MISSION VALLEY",3215.64828623,140082535.581,89502.8557087,-117.169861662008,32.7599665865915
"734","CHEVRON /EASTLAKE PETROEUM",15127,"950 ELAKE PKWY","CHULA VISTA",91915,"760 846-0708",NA,52,0,NA,NA,NA,NA,NA,-116.966639574725,32.6502443690648
"735","CHEVRON /G&M OIL CO, #141",15370,"130 KNOLL RD","SAN MARCOS",92069,"760 744-9913",NA,36,0,NA,NA,NA,NA,NA,-117.174868695985,33.139046886115
"736","CHEVRON -ENCINITAS",15515,"350 ENCINITAS BLVD","ENCINITAS",92024,"760 ________",NA,48,0,NA,NA,NA,NA,NA,-117.285058844915,33.0483614584437
"737","CHEVRON POINSETTIA",13466,"7170 AVENIDA ENCINAS","CARLSBAD",92009,"760 804-5759",NA,40,0,NA,NA,NA,NA,NA,-117.312024774137,33.1003473042391
"738","COSTCO WHOLESALE #124",10593,"1755 HACIENDA DR","VISTA",92081,NA,NA,24,0,NA,NA,NA,NA,NA,-117.276764709855,33.1881775880341
"739","COUNTY OF SAN DIEGO/JULIAN RD STATION",10349,"1524 SR-78","JULIAN",92036,NA,NA,4,0,NA,NA,NA,NA,NA,-116.592203787456,33.0773636773003
"740","COUNTY OF SAN DIEGO/LAKESIDE FUELING ST",10348,"13115 WILLOWS RD","LAKESIDE",92040,NA,NA,4,0,NA,NA,NA,NA,NA,-116.909432735266,32.8746421056262
"741","COUNTY OF SAN DIEGO/RAMONA RD STATION",10363,"116 5TH ST","RAMONA",92065,NA,NA,8,0,NA,NA,NA,NA,NA,-116.861037874903,33.0480534150896
"742","COUNTY OF SAN DIEGO/SAN FELIPE RD STATI",10351,"25704 SAN FELIPE RD","WARNER SPRING",92086,NA,NA,2,0,NA,NA,NA,NA,NA,-116.560152186931,33.1647237052289
"743","COUNTY OF SAN DIEGO/SANTEE OPERATIONS C",10337,"1875 WELD BLVD","EL CAJON",92020,NA,NA,2,0,NA,NA,NA,NA,NA,-116.987569045524,32.8260494255187
"744","EXPRESS GAS - GENE'S",3551,"120 CALLE PRIMERA","SAN DIEGO",92173,"619-424-8880",NA,29,0,33,"SAN YSIDRO",1862.29010478,81121357.007,44119.18566,-117.044445695125,32.5504167877991
"745","EXXON #1019/NEWEST PETROLEUM SD2",5344,"898 BROADWAY","EL CAJON",92021,"916-443-0890",NA,28,0,NA,NA,NA,NA,NA,-116.951364776342,32.8080345236389
"746","EXXON #1022/NEWEST PETROLEUM S2",8166,"907 PALM AV","IMPERIAL BEAC",91932,"916-443-0890",NA,28,0,NA,NA,NA,NA,NA,-117.113942446106,32.5835105602531
"747","EXXON #1040/NEWEST PETROLEUM SD2",2539,"3302 PALM AV","SAN DIEGO",92154,"916-443-0890",NA,30,0,28,"GREATER NORTH PARK",2253.69411336,98171624.1502,50884.2009183,-117.123002594792,32.7357542677179
"748","EXXONMOBIL OIL CORP  #11455",4727,"2750 VIA DE LA VALLE","DEL MAR",92014,"792-2264",NA,36,0,98,"RESERVE",46.75364728,2036588.87548,7238.9138285,-117.248649389212,32.9809833546131
"749","EXXONMOBIL OIL CORP #10365",5926,"9370 PASEO MONTALBAN","SAN DIEGO",92129,"538-6751",NA,42,0,29,"RANCHO PENASQUITOS",6456.34490358,281238503.825,93268.9199605,-117.123693137928,32.9595541930295
"750","EXXONMOBIL OIL CORP #10434",1943,"1761 GREENFIELD DR","EL CAJON",92021,"619-444-4274",NA,24,0,NA,NA,NA,NA,NA,-116.916246403685,32.8113181025943
"751","EXXONMOBIL OIL CORP #11445",3474,"4730 SR-76","FALLBROOK",92028,"760 723-1781","EXXONMOBIL CORP",30,0,NA,NA,NA,NA,NA,-117.162348830075,33.328849952677
"752","EXXONMOBIL OIL CORP. #19104",16151,"13007 CAM DEL SUR","SAN DIEGO",92129,NA,NA,36,0,52,"TORREY HIGHLANDS",1505.5271115,65579900.4282,40148.1925471,-117.152755577032,32.957005812201
"753","FUEL DOCK",4306,"1551 W MISSION BAY DR","SAN DIEGO",92109,"222-1164","JOHN TAYLOR",7,0,17,"MISSION BAY PARK",4292.9465176,187023803.41,76708.5955355,-117.240068920631,32.765555057585
"754","GOLDEN STATE AVIATION",6749,"1640 JOHNSON AV","EL CAJON",92020,"619-449-0611",NA,3,0,NA,NA,NA,NA,NA,-116.971183063929,32.817491582985
"755","HAWTHORNE RENT-IT SERVICE",4536,"2000 MCKINLEY AV","NATIONAL CITY",91950,"474-8222",NA,2,0,NA,NA,NA,NA,NA,-117.110230735746,32.6631681619275
"756","HI WY MARKET /RAMCHO PETROLEUM",15151,"741 SR-78","RAMONA",92065,"760 788-9885",NA,49,0,NA,NA,NA,NA,NA,-116.843971407493,33.0509949311477
"757","LAKE CUYAMACA RECREATION & PARK DISTRIC",7879,"15027 SR-79","JULIAN",92036,"760-765-0515",NA,1,0,NA,NA,NA,NA,NA,-116.585016474639,32.9879974714854
"758","LAMB FUELS, INC.",7467,"855 ENERGY WY","CHULA VISTA",91911,"619-421-0805",NA,3,0,NA,NA,NA,NA,NA,-117.010403626205,32.5966272340861
"759","LIVE OAK SPRINGS MARKET",10677,"37820 SR-80","BLVD",91905,"619 766-3387",NA,8,0,NA,NA,NA,NA,NA,-116.338079595695,32.6897669898232
"760","MAGELLAN AVIATION",15218,"2006 PALOMAR AIRPORT RD","CARLSBAD",92008,"760-438-7603",NA,1,0,NA,NA,NA,NA,NA,-117.280839357206,33.1208208424077
"761","MISSION EXPRESS -CARR'S CAR CENTER, INC",3611,"3940 MISSION AV","OCEANSIDE",92054,"433-2166",NA,15,0,NA,NA,NA,NA,NA,161.859989589447,-90
"762","OCEANSIDE HARBOR FUEL DOCK AND MINI MAR",15539,"1380 N PACIFIC ST","OCEANSIDE",92054,"760 722-5853",NA,5,0,NA,NA,NA,NA,NA,-117.393053160369,33.2050634333554
"763","OCHS INC.",3635,"145 VIA VERA CRUZ","SAN MARCOS",92069,"760 744-5441","OCHS, CARENCE",20,0,NA,NA,NA,NA,NA,-117.190330338387,33.1415010528796
"764","O'SIDE GAS #2",16071,"3945 MISSION AV","OCEANSIDE",92054,"760-967-1512",NA,48,0,NA,NA,NA,NA,NA,-117.323359266696,33.2284078496013
"765","PEPPER OIL COMPANY, INC.",9143,"2300 TIDELANDS AV","NATIONAL CITY",91950,"619-336-6111",NA,2,0,NA,NA,NA,NA,NA,-117.115173203171,32.6589339550546
"766","QWIK KORNER GAS STATION #2",13642,"9035 MISSION GORGE RD","SANTEE",92071,"619-729-3729",NA,40,0,NA,NA,NA,NA,NA,-117.001028448035,32.8383148428751
"767","RAMCO PETROLEUM",15349,"30351 SR-78","SANTA YSABEL",92070,"760",NA,16,0,NA,NA,NA,NA,NA,-116.673015244048,33.1093103377183
"768","RANCHO CAR WASH/VIGNATO DEV.CORP*",2528,"2661 VIA DE LA VALLE","DEL MAR",92014,"619-259-4353",NA,36,0,98,"RESERVE",46.75364728,2036588.87548,7238.9138285,-117.24887018102,32.9806544663008
"769","SHELL - L.M. RETAIL, LP",14263,"5115 AVENIDA ENCINAS","CARLSBAD",92008,"760-630-0431",NA,24,0,NA,NA,NA,NA,NA,-117.329510177977,33.1316725626444
"770","SHELL OIL PRODUCTS US #120425",10082,"3480 DEL LAGO BLVD","ESCONDIDO",92029,"602-468-6944",NA,42,0,NA,NA,NA,NA,NA,-117.071420991789,33.0710547971796
"771","SHELL OIL PRODUCTS US #120907",2544,"2205 VIA DE LA VALLE","DEL MAR",92014,"602-468-6944",NA,28,0,40,"TORREY PINES",2722.31778494,118584162.712,101824.664393,-117.255420671669,32.979400827733
"772","SHELL OIL PRODUCTS US #121238",6072,"4201 POINT LOMA BLVD","SAN DIEGO",92110,"602-468-6944",NA,28,0,30,"PENINSULA",5282.33053107,230118805.311,128220.9802,-117.244732248541,32.729983861623
"773","SHELL OIL PRODUCTS US #135919",2037,"16998 W BERNARDO DR","SAN DIEGO",92127,"602-468-6944",NA,30,0,31,"RANCHO BERNARDO",6582.52496453,286763101.68,82435.4989635,-117.08266184105,33.023449333948
"774","SHELL OIL PRODUCTS US #135921",2726,"1881 PALM AV","SAN DIEGO",92154,"602-468-6944",NA,36,0,NA,NA,NA,NA,NA,-117.086744702797,32.6711012184684
"775","SHELL-SAN MARCOS/KA MANAGEMENT INC.",12682,"800 RANCHO SANTE FE","SAN MARCOS",92069,"858 541 2954",NA,52,0,NA,NA,NA,NA,NA,-117.209542004923,33.1308244261335
"776","SO CAL TRUCK STOP",0,"2250 TIDELANDS AV","NATIONAL CITY",91950,"619-336-6103",NA,18,0,NA,NA,NA,NA,NA,-117.115221532217,32.6591601237317
"777","SUNSHINE SUMMIT INC",13380,"35230 SR-79","WARNER SPRING",92086,NA,NA,8,0,NA,NA,NA,NA,NA,-116.740236234105,33.352249726813
"778","SUPER STAR #2, SUPER STATIONS INC",15282,"1090 BROADWAY","EL CAJON",92021,"619 440-1166",NA,36,0,NA,NA,NA,NA,NA,-116.944885548204,32.8080392447239
"779","THRIFTY #9563",2666,"1890 PALM AV","SAN DIEGO",92154,NA,NA,28,0,NA,NA,NA,NA,NA,-117.087026619492,32.6709458575053
"780","THRIFTY #9579",2685,"434 W 5TH AV","ESCONDIDO",92025,NA,NA,24,0,NA,NA,NA,NA,NA,-117.083947737672,33.115896480445
"781","UNOCAL #256832/KAYO OIL CO",2531,"236 EL CAMINO REAL","ENCINITAS",92024,"942-6451",NA,32,0,NA,NA,NA,NA,NA,-117.331163873122,33.2224130621928
"782","US PETROLEUM & SERVICE-HAN'S*",7919,"445 W 5TH AV","ESCONDIDO",92025,"760-739-9196",NA,26,0,NA,NA,NA,NA,NA,-117.083610694171,33.1153488356588
"783","VALERO -LEMON GROVE VALERO, JJ'S MARKET",15678,"8170 BROADWAY","LEMON GROVE",91945,"619 825-6839",NA,28,0,NA,NA,NA,NA,NA,-117.020646044832,32.7447273716142
"784","VEGA BIODIESEL",16271,"1546 TANGLEWOOD LN","SAN MARCOS",92078,"858-705-3746",NA,1,0,NA,NA,NA,NA,NA,-117.095017488198,33.107155701629
"785","WARNER SPRINGS RANCH/ATTN:ERYN SISK",2361,"31652 SR-79","WARNER SPRING",92086,"760-782-4225",NA,2,0,NA,NA,NA,NA,NA,-116.63516821813,33.2835640501536
"786","WESTMART",14381,"4990 AVENIDA ENCINAS","CARLSBAD",92008,"760-431-7100","BOLAND DAVARI",56,0,NA,NA,NA,NA,NA,-117.330155554131,33.1329004830018
"787",NA,0,NA,NA,0,NA,NA,0,0,NA,NA,NA,NA,NA,-117.325707510009,33.2276016965145
